Reviewer,Brand,Model,model,Location,lat,long,country,subreg1,subreg2,Study.Type,Freq1,Freq2,Freq3,Notes,Duration1,Duration2,Duration3,Duration4,Depth1,Depth2,Depth3,Depth4,Notes.1,Accuracy1,Accuracy2,Notes.2,Calibrated,Notes.3,Shaded,Notes.4,Data.Available,Notes.5,Citation,DOI,Notes.6,X
Wally,Aanderaa,Aanderaa Oxygen optode,Aanderaa Oxygen optode,"Bermuda (32.457¬∫, -64.835¬∫)",32.457,-64.835,Bermuda,,,Biogeochemistry,10,15,120,,~3 weeks,,,,7,,,NA,,0.002,0.005,,Not mentioned,,Not mentioned,,Yes,,Pezner et al. 2021,http://dx.doi.org/10.3389/fmars.2021.562267,,
Gage,Aanderaa,SEAGUARD RCM,SEAGUARD RCM,"Keahole, Hawaii and Makapu'a, Hawaii, and Barbers Pinnacle, Hawaii",19.7268,-156.0619,Hawaii,,,Physical Oceanography,Not mentioned,,NA,,7 months,,,,Not mentioned,,,NA,,Not mentioned,,,Not mentioned,,Not mentioned,,Yes,,Parrish and Oliver 2020,http://dx.doi.org/10.3389/fmars.2020.00310,,
Gage,Alec Electronics Co,Compact-CT,Compact-CT,"Iriomote Island, Japan (24¬∞15‚Äì25‚Ä≤N, 123¬∞40‚Äì55‚Ä≤E)",24.25,123.66667,Japan,,,Ecology,Not mentioned,,NA,,3 years,,,,Not mentioned,,,NA,0.4 from bottom,Not mentioned,,,Not mentioned,,Not mentioned,,No,,Muko et al. 2013,http://dx.doi.org/10.1007/s00338-012-0967-z,,
Gage,Alec Electronics Co,Compact-CTW,Compact-CTW,"Iriomote Island, Japan (24¬∞15‚Äì25‚Ä≤N, 123¬∞40‚Äì55‚Ä≤E)",24.25,123.66667,Japan,,,Ecology,Not mentioned,,NA,,3 years,,,,Not mentioned,,,NA,0.4 from bottom,Not mentioned,,,Not mentioned,,Not mentioned,,No,,Muko et al. 2013,http://dx.doi.org/10.1007/s00338-012-0967-z,,
Gage,Aquatec,AQUAlogger 210,AQUAlogger 210,"Hainan Island, South China Sea",20.02,110.3486,China,,,Ecology,Not mentioned,,NA,,Not mentioned,,,,Not mentioned,,,NA,,Not mentioned,,,Not mentioned,,Not mentioned,,No,,Zhu et al. 2021,http://dx.doi.org/10.1016/j.marpolbul.2021.113048,,
Lena,Dataflow Systems Ltd,Odyssey,Odyssey,"Solitary Islands Marine Park (30¬∞ South), E Australia",-29.66667,153.08333,Australia,,,Ecology,30,,NA,,365,,,,7,13.4,,NA,,0.16,,,Yes,,Not mentioned,,Yes,,"Malcolm HA, Davies PL, Jordan A, Smith SDA (2011) Variation in sea temperature and the East Australian Current in the Solitary Islands region between 2001–2008. Deep Sea Research Part II:  Topical Studies in Oceanography 58: 616-627",https://doi.org/10.1016/j.dsr2.2010.09.030,Not sure whether to include because they used in situ but from someone else,Info for data used in http://dx.doi.org/10.1007/s00338-021-02081-2 came from cited paper here
Wally,DTS,Raman fiber ,Raman fiber ,"Dongsha Atoll, South China Sea",20.6553,116.9008,China,,,Physical Oceanography,1,,NA,,1 week,,,,0.5,3.5,,NA,,0.002,,,Yes,,Not mentioned,,No,,Reid et al. 2019,http://dx.doi.org/10.1002/lno.11162,"""reef flat is 0.5 to 3.5m""",
Nicole,Eureka Water Probes,Manta + Water Quality Sonde,Manta + Water Quality Sonde,"Mandapam group of Islands in Gulf of Mannar Marine Biosphere Reserve, India",9.21564,79.12834,India,,,Ecology,Not mentioned,,NA,,9 months,,,,Not mentioned,,,NA,,Not mentioned,,,Not mentioned,,Not mentioned,,No,,"Ramesh et al., 2020",http://dx.doi.org/10.1016/j.rsma.2020.101429,,
Lena,Gemini Data Loggers Ltd,Not mentioned,Not mentioned,"Suleman Reef, South Sinai, Egypt",27.91582,34.32995,Egypt,,,Ecology,240,,NA,,4 days,,,,0.5,0.8,,NA,0.5-0.8m,Not mentioned,,,Not mentioned,,Not mentioned,,No,,"Bach et al., 2017",http://dx.doi.org/10.3389/fmars.2017.00212,,
Gage,General Oceanics,Low velocity flow meter 2030R6,Low velocity flow meter 2030R6,"Keahole, Hawaii and Makapu'a, Hawaii, and Barbers Pinnacle, Hawaii",19.7268,-156.0619,Hawaii,,,Physical Oceanography,Not mentioned,,NA,,7 months,,,,Not mentioned,,,NA,,Not mentioned,,,Not mentioned,,Not mentioned,,Yes,,Parrish and Oliver 2020,http://dx.doi.org/10.3389/fmars.2020.00310,,
Wally,Hugrun (now Star-Oddi),Starmon mini,Starmon mini,"Sodwana Bay, South Africa ()",-27.41492,32.72661,South Africa,,,Ecology,Not mentioned,,NA,,20 yrs,,,,18,,,NA,,0.02,0.025,,Yes,,Not mentioned,,No,,Porter and Schleyer 2017,http://dx.doi.org/10.1007/s00338-016-1531-z,,
Gage,Hugrun (now Star-Oddi),Starmon mini,Starmon mini,"Phuket Island, Thailand (7¬∞50‚Ä≤N, 98¬∞25.5‚Ä≤E) ",7.83333,98.425,Thailand,,,Physical Oceanography,5,30,NA,,Not mentioned,,,,Not mentioned,,,NA,,0.05,0.2 +/- 0.05% readings,,Yes,,Not mentioned,,Yes,,Sweet et al. 2017,http://dx.doi.org/10.1007/s00338-017-1572-y,"First sensor was used to take temp at surface of coral, second was an environmental monitor but needed to be read and recorded by the Grant Squirrel Logger",
Lena/Erik,Hugrun (now Star-Oddi),PTS sensor,PTS sensor,"16¬∞ 31.84‚Ä≤ S, 151¬∞ 42.27‚Ä≤ W",-16.53067,-151.7045,French Polynesia,,,Physical Oceanography,10,,NA,600 s,3 weeks,,,,2,,,NA,,0.0001,,,Yes,,Unclear,,No,,van Haren 2020,http://dx.doi.org/10.2112/JCOASTRES-D-19-00154.1,,
Jess,Innovasea VR2Tx ,acoustic receiver,acoustic receiver,throughout Florida Keys,24.6914,-81.18968,Florida,,,Ecology,60,,NA,,709 -1475,,,,Not mentioned,,,NA,,Not mentioned,,,Not mentioned,,Not mentioned,,upon request,,"Brownscombe J, Griffin L, Morley D, Acosta A, Boucek R, Adams A, Danylchuk A, Cooke S. (2022). Spatial-temporal patterns of Permit (Trachinotus falcatus) habitat residency in the Florida Keys, USA. Environmental Biology of Fishes. 106. 1-13. 10.1007/s10641-022-01332-7. ",10.1007/s10641-022-01332-7,,
Gage,Lowell Instruments,TCM-3,TCM-3,"Keahole, Hawaii and Makapu'a, Hawaii, and Barbers Pinnacle, Hawaii",19.7268,-156.0619,Hawaii,,,Physical Oceanography,Not mentioned,,NA,,7 months,,,,Not mentioned,,,NA,,Not mentioned,,,Not mentioned,,Not mentioned,,Yes,,Parrish and Oliver 2020,http://dx.doi.org/10.3389/fmars.2020.00310,,
Jess,Marine Geophysics Lab,Marotte HS drag-tilt current metres,Marotte HS drag-tilt current metres,"17¬∞32‚Ä≤19.8‚Ä≥S, 149¬∞49‚Ä≤46.3‚Ä≥W",-17.53883,-149.82953,French Polynesia,Moorea,,Ecology,Not mentioned,,NA,,56,,,,2.5,4,,NA,2.5-4,Not mentioned,,,Not mentioned,,Not mentioned,,No,,"Cortese, D, Norin, T, Beldade, R, Crespel, A, Killen, SS, Mills, SC. Physiological and behavioural effects of anemone bleaching on symbiont anemonefish in the wild. Funct Ecol. 2021; 35: 663‚Äì 674. https://doi.org/10.1111/1365-2435.13729",10.1111/1365-2435.13729,tracked in situ temp during ex situ expt on anemonefish,
Lena,Marine Geophysics Lab,Marotte HS drag-tilt current metres,Marotte HS drag-tilt current metres,"(23¬∞ 44‚Ä≤23‚Ä≤‚Ä≤S, 151¬∞ 91‚Ä≤48‚Ä≤‚Ä≤E)",-23.73972,152.53,Australia,,,Ecology,1,,NA,,23,,,,3,,,NA,,Not mentioned,,,Not mentioned,,Not mentioned,,No,,"Page et al., 2021",http://dx.doi.org/10.1093/conphys/coab046,,
Gage,Maxim Integrated Products,iButton,iButton,"La Parguera Natural Reserve, Puerto Rico",17.8823,-67.0703,Caribbean,,,Ecology,120,,NA,,6 months,,,,Not mentioned,,,NA,,Not mentioned,,,Not mentioned,,Not mentioned,,Yes,,Tracy et al. 2019,http://dx.doi.org/10.1002/eap.2024,used two different loggers,
Lena,Maxim Integrated Products,iButton ,iButton ,"Buzios island, Brazil",-22.75978,-41.88753,Brazil,,,Ecology,120,,NA,,15,,,,Not mentioned,,,NA,,Not mentioned,,,Not mentioned,,Not mentioned,,No,,"Barbosa et al., 2019",http://dx.doi.org/10.3354/meps13110,,
Nicole,Maxim Integrated Products,i-Button DS1921G-F5#,i-Button DS1921G-F5#,"Farol beach, Arraial do Cabo, Brazil (, )",-22.96583,-42.02778,Brazil,,,Ecology,60,,NA,,~9 weeks,~8 weeks,,,4,,,NA,,Not mentioned,,,Not mentioned,,Not mentioned,,No,,"Lima et al., 2016",http://dx.doi.org/10.5343/bms.2015.1029,,
Nicole,Nortek,Aquadopp ADCP,Aquadopp ADCP,"Puerto Morelos coral reef lagoon (), Yucatan Peninsula ",20.88,-86.85944,Mexico,,,Physical Oceanography,10,,NA,,3 days,,,,1,Not mentioned,,NA,"""‚àº1 m above the sea floor up to ‚àº1 m below the sea surface""",Not mentioned,,,Not mentioned,,Not mentioned,,No,,"Parra et al., 2014",http://dx.doi.org/10.1007/s10236-014-0765-y,,
Jess,Not mentioned,Not mentioned,Not mentioned,6 sites in Caribbean,21.4691,-78.6569,Caribbean,,,Ecology,Not mentioned,,NA,"""Continuously""",365,,,,2,40,,NA,Feb-40,0.1,,,Not mentioned,,Not mentioned,,No,,"Aranda, DA; Oxenford, HA; Bissada, C; Diaz, ME; Brule, T; Delgado, GA; Morales, IM; Frenkiel, L (2014) Reproductive patterns of queen conch, Strombus gigas (Mollusca, Gastropoda), across the Wider Caribbean Region. BULLETIN OF MARINE SCIENCE 90: 813-831",10.5343/bms.2013.1072,,
Gage,Not mentioned,Not mentioned,Not mentioned,"Ofu Island, America Samoa",-14.17808,-169.66011,Samoa,,,Ecology,12,,NA,,2 yrs,,,,Not mentioned,,,NA,,Not mentioned,,,Not mentioned,,Not mentioned,,Yes,,Traylor-Knowles 2016,http://dx.doi.org/10.1007/s00227-016-3011-y,,
Lena/Erik,Not mentioned,Not mentioned,Not mentioned,Ofu Island,-14.17808,-169.66011,Samoa,,,Ecology,Not mentioned,,NA,,August 2010 - July 2012,,,,Not mentioned,,,NA,,Not mentioned,,,Not mentioned,,Not mentioned,,No,,Traylor-Knowles 2016,http://dx.doi.org/10.1007/s00227-017-3076-2,,
Gage,Not mentioned,Not mentioned,Not mentioned,Northeastern Hong Kong,22.3193,114.1694,China,,,Ecology,Not mentioned,,NA,,1 yr,,,,Not mentioned,,,NA,,Not mentioned,,,Not mentioned,,Not mentioned,,No,,Ng and Ang Jr. 2016,http://dx.doi.org/10.1007/s00338-016-1458-4,,
Wally,Not mentioned,Not mentioned,Not mentioned,"Cygnet Bay, Australia (, )",-16.47967,123.0435,Australia,,,Ecology,Not mentioned,,NA,,Not mentioned,,,,Not mentioned,,,NA,,Not mentioned,,,Not mentioned,,Not mentioned,,No,,Jung et al. 2021,http://dx.doi.org/10.1007/s00338-021-02094-x,,
Nicole,Not mentioned,Not mentioned ,Not mentioned ,"Moorea, French Polynesia (17¬∞30‚Ä≤S, 149¬∞50‚Ä≤W) ",-17.5,-149.83333,French Polynesia,Moorea,,Ecology,2,,NA,,1 yr 8 months,,,,Not mentioned,,,NA,,Not mentioned,,,Not mentioned,,Not mentioned,,No,,"Burkepile et al., 2019",http://dx.doi.org/10.1007/s10021-019-00433-2,"(""two thermistors"")",
Nicole,Not mentioned,Not mentioned,Not mentioned,"Kashiwajima (32¬∞46‚Ä≤N, 132¬∞38‚Ä≤E), Yokonami (, ), and Kushimoto (33¬∞28 N, 135¬∞44E) in Japan",33.4,133.4,Japan,,,Ecology,1440,,NA,Daily,1 yr,,,,5,,,NA,,Not mentioned,,,Not mentioned,,Not mentioned,,No,,"Tose et al., 2017",http://dx.doi.org/10.1007/s10641-017-0590-5,,
Lena,Not mentioned,Not mentioned,Not mentioned,Persian Gulf and Oman Sea,26.07652,52.62451,Qatar,,,Ecology,Not mentioned,,NA,,~335,,,,Not mentioned,,,NA,,Not mentioned,,,Not mentioned,,Not mentioned,,No,,"Howells et al., 2016",http://dx.doi.org/10.1016/j.marpolbul.2015.11.034,,
Lena,Not mentioned,Not mentioned,Not mentioned,Northwest shelf of Australia,-20.59424,116.7767,Australia,,,Ecology,15,30,NA,15-30,420-840,,,,Not mentioned,,,NA,,Not mentioned,,,Not mentioned,,Not mentioned,,Yes,,"Clarke et al., 2019",http://dx.doi.org/10.1029/2018PA003509,,
Lena,Not mentioned,Not mentioned ,Not mentioned ,"Cecile Peninsula, Kiritimati Island",1.85,-157.5,Line Islands,Christmas Island,,Ecology,30,,NA,,274 days,,,,0.5,1,,NA,0.5-1m,Not mentioned,,,Not mentioned,,Not mentioned,,Yes,,"Knebel et al., 2021",http://dx.doi.org/10.1029/2020JC016889,"(""CTD logger"")",
Lena,Not mentioned,Not mentioned,Not mentioned,"Nanwan Bay, Taiwan",21.94139,120.75278,Taiwan,,,Ecology,Not mentioned,,NA,,October 2018 to November 2019,,,,3,,,NA,,Not mentioned,,,Not mentioned,,Not mentioned,,No,,"Cirino et al., 2021",http://dx.doi.org/10.1080/17451000.2021.1906904,,
Lena,Not mentioned,Not mentioned,Not mentioned,"Milne Bay Province, Papua New Guinea",-9.5221,150.675,Papua New Guinea,Fergusson Island,,Ecology,Not mentioned,,NA,,~1260,,,,Not mentioned,,,NA,,Not mentioned,,,Not mentioned,,Not mentioned,,Yes,,"Noonan et al., 2016",http://dx.doi.org/10.1093/icesjms/fsv127,,
Lena,Not mentioned,Not mentioned,Not mentioned,"29¬∞27‚Ä≤ N, 34¬∞58‚Ä≤ E",29.45,34.96667,Jordan,,,Ecology,1,,NA,,Februrary-November 2013,,,,10,,,NA,,Not mentioned,,,Not mentioned,,Not mentioned,,Yes,,"Cardini et al., 2015",http://dx.doi.org/10.1098/rspb.2015.2257,,
Nicole,Not mentioned,Not mentioned,Not mentioned,"Lilipuna (21¬∞25‚Ä≤36.8‚Ä≤‚Ä≤N, 157¬∞47‚Ä≤24.0‚Ä≤‚Ä≤W) and () in central KƒÅne'ohe Bay, Hawai'i",21.45239,-157.80131,Hawaii,Hawaii,Oahu,Ecology,15,,NA,,1 yr 4 months,,,,1,,,NA,,Not mentioned,,,Yes,,Not mentioned,,Yes,,"Wall et al., 2021",http://dx.doi.org/10.1111/1365-2435.13795," (""temperature loggers"")",
Nicole,Not mentioned,Not mentioned ,Not mentioned ,Heron reef (),-23.51217,151.9535,Australia,,,Ecology,5,,NA,,3 months,,,,4,9,19,35,"4, 9, 19 and 35",Not mentioned,,,Not mentioned,,Not mentioned,,No,,"Weeks et al., 2013",http://dx.doi.org/10.3354/meps10398,"(""Subsurface temperature loggers"")",
Wally,Not mentioned,Not mentioned,Not mentioned,"Lizard Island and Heron Island, Australia",-14.66667,145.45,Australia,,,Ecology,70,,NA,,Not mentioned,,,,10,30,,NA,,Not mentioned,,,Not mentioned,,Not mentioned,,No,,Kingsford et al. 2022,http://dx.doi.org/10.3354/meps13920,,
Nicole,Not mentioned,Not mentioned ,Not mentioned ,"Mo‚Äôorea, French Polynesia () ",-17.5,-149.83333,French Polynesia,Moorea,,Ecology,2,,NA,,13 months,,,,Not mentioned,,,NA,,Not mentioned,,,Not mentioned,,Not mentioned,,Yes,,"Maher et al., 2020",http://dx.doi.org/10.3389/fevo.2020.555698,"(""two thermistors"")",
Wally,Not mentioned,Not mentioned,Not mentioned,"Great Barrier Reef, Australia",-18.15629,147.48596,Australia,,,Ecology,Not mentioned,,NA,,Not mentioned,,,,10,30,,NA,,Not mentioned,,,Not mentioned,,Not mentioned,,No,,Kingsford et al. 2019,http://dx.doi.org/10.3390/d11050067,,
Lena,Not mentioned,Not mentioned,Not mentioned,(26¬∞39‚Ä≥N and 127¬∞51‚Ä≤E),26.65,127.85,Japan,,,Ecology/Biogeochemistry,Not mentioned,,NA,,7,,,,0.5,,,NA,,Not mentioned,,,Not mentioned,,Not mentioned,,Yes,,"Sultana et al., 2016",http://dx.doi.org/10.3389/fmars.2016.00100,,
Wally,Not mentioned,Not mentioned,Not mentioned,"Kane'ohe Bay, Hawaii (20¬∫25.98', -157¬∫47.18')",20.433,-157.78633,Hawaii,,,Ecology/Physical Oceanography?,0.1,,NA,,2 weeks,,,,Not mentioned,,,NA,,Not mentioned,,,Not mentioned,,Not mentioned,,No,,Silbiger et al. 2014,http://dx.doi.org/10.3354/meps10999,,
Gage,Not mentioned,Not mentioned,Not mentioned,"Sabine Bank, Espiritu Santo",-15.39,166.85,Vanuatu,Espiritu Santo,,Physical Oceanography,15,,NA,,8 yrs,,,,15,,,NA,,Not mentioned,,,Yes,,Not mentioned,,Yes,,Maes et al. 2013,http://dx.doi.org/10.1002/jgrc.20344,,
Gage,Not mentioned,Not mentioned,Not mentioned,Palmyra Atoll,5.86667,-162.08333,Line Islands,,,Physical Oceanography,Not mentioned,,NA,,Not mentioned,,,,Not mentioned,,,NA,,Not mentioned,,,Not mentioned,,Not mentioned,,Yes,,Guillaume-Castel et al. 2021,http://dx.doi.org/10.1002/lom3.10449,,
Lena,Not mentioned,Not mentioned,Not mentioned,"Jarvis Island, US Line Islands ",-0.37435,-159.99672,Line Islands,,,Physical Oceanography,Not mentioned,,NA,,2002-2017,,,,0,19,,NA,0-19,Not mentioned,,,Not mentioned,,Not mentioned,,No,,"Vargas-Angel et al., 2019",http://dx.doi.org/10.1007/s00338-019-01838-0,,
Lena,Not mentioned,ACDP,ACDP,Florida,24.58588,-81.58143,Florida,,,Physical Oceanography?,Not mentioned,,NA,,17 months,,,,20,,,NA,,Not mentioned,,,Not mentioned,,Not mentioned,,No,?,"Edge et al., 2013",http://dx.doi.org/10.1016/j.aquatox.2012.11.014,Not sure if acoustic doppler current profiler counts as a logger but they said it logged for over a year at 20m so I'm assuming yes,
Lena,Onset Computer Corporation,32K tidbit,HOBO TidbiT,"Solitary Islands Marine Park (30¬∞ South), E Australia",-29.66667,153.08333,Australia,,,Ecology,30,,NA,,365,,,,7,13.4,,NA,,0.16,,,Yes,,Not mentioned,,Yes,,"Malcolm HA, Davies PL, Jordan A, Smith SDA (2011) Variation in sea temperature and the East Australian Current in the Solitary Islands region between 2001–2008. Deep Sea Research Part II:  Topical Studies in Oceanography 58: 616-627",https://doi.org/10.1016/j.dsr2.2010.09.030,Not sure whether to include because they used in situ but from someone else,Info for data used in http://dx.doi.org/10.1007/s00338-021-02081-2 came from cited paper here
Nicole,Onset Computer Corporation,HOBO,Not mentioned,"Coral Bay (23.1'S) , Rottnest Island (32'S), Bremer Bay (34.3'S), Western Australia",-32.0041,115.5151,Australia,,,Biogeochemistry,10,,NA,,1.5-2 yrs,,,,Not mentioned,,,NA,,0.2,,,Not mentioned,,Not mentioned,,Yes,,"Ross et al., 2019",http://dx.doi.org/10.1111/gcb.14488,,
Jess,Onset Computer Corporation,HOBO,Not mentioned,"16.730‚ó¶ N, 87.786‚ó¶ W",16.73,-87.786,Belize,,,Ecology,30,,NA,,365,,,,8,10,,NA,10-Aug,Not mentioned,,,Not mentioned,,Not mentioned,,No,,"Manuel Gonz√°lez-Rivero , Alexander V. Ereskovsky , Christine H. L. Sch√∂nberg , Renata Ferrari , Jane Fromont & Peter J. Mumby , Journal of Natural History (2013): Life-history traits of a common Caribbean coral-excavating sponge, Cliona tenuis (Porifera: Hadromerida), Journal of Natural History",10.1080/00222933.2013.802042,,
Jess,Onset Computer Corporation,HOBO,Not mentioned,"reef flat of West Hag√•t√±a Bay, Guam",13.4443,144.79373,Guam,,,Ecology,30,,NA,,180,,,,1.25,,,NA,,Not mentioned,,,Not mentioned,,Not mentioned,,No,only molecular data available,"Fifer J, Bentlage B, Lemer S, Fujimura AG, Sweet M, Raymundo LJ. Going with the flow: How corals in high-flow environments can beat the heat. Mol Ecol. 2021;00:1‚Äì16. https://doi.org/10.1111/mec.15869",10.1111/mec.15869,,
Gage,Onset Computer Corporation,HOBO,Not mentioned,"La Parguera Natural Reserve, Puerto Rico",17.8823,-67.0703,Caribbean,,,Ecology,120,,NA,,6 months,,,,Not mentioned,,,NA,,Not mentioned,,,Not mentioned,,Not mentioned,,Yes,,Tracy et al. 2019,http://dx.doi.org/10.1002/eap.2024,used two different loggers,
Wally,Onset Computer Corporation,HOBO,Not mentioned,"Baja California to Oaxaca, Mexico",17.0732,-96.7266,Mexico,,,Ecology,360,,NA,,6 years,,,,6,,,NA,,Not mentioned,,,Not mentioned,,Not mentioned,,No,,Carballo et al. 2013,http://dx.doi.org/10.1002/ece3.452,,
Nicole,Onset Computer Corporation,HOBO,Not mentioned,"Hind Bank, US Virgin Islands on Puerto Rican shelf ",18.19,-64.96,Caribbean,,,Ecology,15,,NA,,~4 months,,,,30,40,,NA,30-40,Not mentioned,,,Not mentioned,,Not mentioned,,No,,"Jossart et al., 2017",http://dx.doi.org/10.1007/s00227-017-3213-y,,
Lena,Onset Computer Corporation,HOBO,Not mentioned,"21¬∞26‚Ä≤06.0‚Ä≥N, 157¬∞47‚Ä≤27.9‚Ä≥W",21.435,-157.79108,Hawaii,Hawaii,Oahu,Ecology,Not mentioned,,NA,,4 months,,,,1,,,NA,<,Not mentioned,,,Yes,,Not mentioned,,No,,"Wall et al., 2018",http://dx.doi.org/10.1007/s00227-018-3317-z,,
Nicole,Onset Computer Corporation,HOBO,Not mentioned,"Tosa Bay, western Japan: Yokonami (YO; 33¬∞24‚Ä≤N, 133¬∞24‚Ä≤E) and Tei (TE; )",33.51667,133.75,Japan,Shikoku,,Ecology,60,,NA,,~ 2 years,,,,3,,,NA,,Not mentioned,,,Not mentioned,,Not mentioned,,No,,"Leriorato et al., 2019",http://dx.doi.org/10.1007/s00227-019-3557-6,,
Wally,Onset Computer Corporation,HOBO,Not mentioned,"Isabel Island, Mexico (21¬∞ 52‚Ä≤ 30Àù N, 105¬∞ 54‚Ä≤ 54Àù W)",21.875,-105.915,Mexico,,,Ecology,360,,NA,,4 years,,,,Not mentioned,,,NA,,Not mentioned,,,Not mentioned,,Not mentioned,,No,,Bautista-Guerrero et al. 2014,http://dx.doi.org/10.1007/s00338-013-1094-1,,
Nicole,Onset Computer Corporation,HOBO,Not mentioned,"Quita Dukais, Red Sea ()",21.98333,38.85,Saudi Arabia,,,Ecology,Not mentioned,,NA,,2 days,3 days,,,Not mentioned,,,NA,,Not mentioned,,,Not mentioned,,Not mentioned,,No,,"Bernstein et al., 2016",http://dx.doi.org/10.1007/s00338-015-1396-6,,
Nicole,Onset Computer Corporation,HOBO,Not mentioned,"Hog reef and Baileys Bay Reef Flats, Bermuda",32.457,-64.835,Bermuda,,,Ecology,30,,NA,,4 months,,,,4,8,,NA,8-Apr,0.1,,,Not mentioned,,Not mentioned,,No,,"de Putron et al., 2017",http://dx.doi.org/10.1007/s00338-016-1527-8,,
Wally,Onset Computer Corporation,HOBO,Not mentioned,Florida Keys,24.58588,-81.58143,Florida,,,Ecology,60,,NA,,2 years,,,,Not mentioned,,,NA,,Not mentioned,,,Not mentioned,,Not mentioned,,No,,Lewis et al. 2017,http://dx.doi.org/10.1007/s00338-017-1545-1,,
Nicole,Onset Computer Corporation,HOBO,Not mentioned,"Ubatuba, S√£o Paulo State, Brazil ()",-23.50028,-45.11861,Brazil,,,Ecology,Not mentioned,,NA,"""Continuously""",11 months,,,,Not mentioned,,,NA,aproximate location and depth of chosen colonies,0.53,,,Not mentioned,,Not mentioned,,No,,"Mies et al., 2018",http://dx.doi.org/10.1007/s00338-018-1692-z,,
Lena,Onset Computer Corporation,HOBO,Not mentioned,"(18¬∞41.405‚ÄôS, 146¬∞31.272‚ÄôE), (18¬∞36.989‚ÄôS, 146¬∞29.832‚ÄôE)",-18.69008,146.5212,Australia,,,Ecology,Not mentioned,,NA,,720,,,,Not mentioned,,,NA,,Not mentioned,,,Not mentioned,,Not mentioned,,No,,"Azmi Abdul Wahab et al., 2014",http://dx.doi.org/10.1016/j.jembe.2014.08.006,study done on coral reef sponges,
Lena/Erik,Onset Computer Corporation,HOBO,Not mentioned,"Wee Wee Caye, Belize  (,)",16.76,-88.14,Belize,,,Ecology,60,,NA,,2005-2014 (gap in data b/t 2008-2010 from loss of logger),,,,Not mentioned,,,NA,,Not mentioned,,,Not mentioned,,Not mentioned,,No,,"Di Santo and Lobel, 2017",http://dx.doi.org/10.1016/j.jembe.2016.11.007,,
Wally,Onset Computer Corporation,HOBO,Not mentioned,"Sir Bur Nair Island, UAE",25.2257,54.22,United Arab Emirates,,,Ecology,60,,NA,,9 months,,,,2,5,10,NA,,Not mentioned,,,Not mentioned,,Not mentioned,,No,,Bejarano et al. 2022,http://dx.doi.org/10.1016/j.marpolbul.2022.113570,,
Lena,Onset Computer Corporation,HOBO,Not mentioned,(26¬∞08‚Ä≤52.32‚Ä≥N 80¬∞05‚Ä≤45.48‚Ä≥W),26.14787,-80.09597,Florida,,,Ecology,120,,NA,,730,,,,25,,,NA,,Not mentioned,,,Not mentioned,,Not mentioned,,Yes,,"Chaves-Fonnegra et al., 2015",http://dx.doi.org/10.1017/S0025315415000636,,
Lena,Onset Computer Corporation,HOBO,Not mentioned,Bermuda Atoll,32.3078,-64.7505,Bermuda,,,Ecology,Not mentioned,,NA,,November 2010-September 2012,,,,Not mentioned,,,NA,,Not mentioned,,,Not mentioned,,Not mentioned,,Yes,,"Wong et al., 2021",http://dx.doi.org/10.1111/gcb.15629,,
Gage,Onset Computer Corporation,HOBO,Not mentioned,"Izu Peninsula, Japan (34¬∞39‚Ä≤58.4‚Ä≥N 138¬∞56‚Ä≤33.2‚Ä≥E), (34¬∞19‚Ä≤01.7‚Ä≥N 139¬∞12‚Ä≤35.9‚Ä≥E), ()",34.32083,139.20506,Japan,,,Ecology,Not mentioned,,NA,,1 yr,,,,4,6,,NA,6-Apr,Not mentioned,,,Not mentioned,,Not mentioned,,Yes,,Agostini et al. 2021,http://dx.doi.org/10.1111/gcb.15749,,
Nicole,Onset Computer Corporation,HOBO,Not mentioned,"Panwa Cape (), Phuket, Thailand",7.80192,98.40678,Thailand,,,Ecology,Not mentioned,,NA,,7 months,,,,Not mentioned,Not mentioned,,NA,,Not mentioned,,,Not mentioned,,Not mentioned,,No,,"Pramneechote et al., 2020",http://dx.doi.org/10.15666/aeer/1801_18631881,,
Nicole,Onset Computer Corporation,HOBO,Not mentioned,"Isla Taboguilla, Panama",8.8064,-79.5168,Panama,,,Ecology,60,,NA,,3 weeks,,,,Not mentioned,,,NA,,Not mentioned,,,Not mentioned,,Not mentioned,,No,,"Cunning et al., 2015",http://dx.doi.org/10.1890/14-0449.1,,
Lena,Onset Computer Corporation,HOBO,Not mentioned,"14¬∞40.140S, 145¬∞27.649E",-14.669,145.46082,Australia,,,Ecology,Not mentioned,,NA,,60,,,,Not mentioned,,,NA,,Not mentioned,,,Not mentioned,,Not mentioned,,No,,"Hoogenboom et al., 2017",http://dx.doi.org/10.3389/fmars.2017.00376,,
Nicole,Onset Computer Corporation,HOBO,Not mentioned,"Albion (, ) and Flic-en-Flac (20¬∞16‚Ä≤17.7‚Ä≥S, 57¬∞22‚Ä≤13.9‚Ä≥E), Mauritius ",-20.21653,57.39672,Mauritius,,,Ecology,60,,NA,,24 h,,,,0,0.9,,NA,0-0.9,Not mentioned,,,Not mentioned,,Not mentioned,,No,,"Lilkendey et al., 2019",http://dx.doi.org/10.3389/fmars.2019.00613,,
Nicole,Onset Computer Corporation,HOBO,Not mentioned,"Tridacna and Chain Reef, South Africa",-30.5595,22.9375,South Africa,,,Ecology,30,,NA,,1 yr 4 months,,,,9,16,18,NA,,Not mentioned,,,Not mentioned,,Not mentioned,,Upon request,,"Porter et al., 2021",http://dx.doi.org/10.3390/d13100464,,
Wally,Onset Computer Corporation,HOBO,Not mentioned,"Moorea, French Polynesia",-17.5,-149.83333,French Polynesia,Moorea,,Ecology,60,,NA,,8.5 years,,,,8,50,,NA,,Not mentioned,,,Not mentioned,,Not mentioned,,Yes,,Haguenauer et al. 2021,http://dx.doi.org/10.3390/fishes6030037,,
Wally,Onset Computer Corporation,HOBO,Not mentioned,"Heron Island, Australia",-23.45,151.91667,Australia,,,Ecology,15,,NA,,20 days,,,,Not mentioned,,,NA,,Not mentioned,,,Not mentioned,,Not mentioned,,Yes,,Lantz et al. 2022,http://dx.doi.org/10.5194/bg-19-891-2022,,
Erik,Onset Computer Corporation,HOBO,Not mentioned,"26¬∞ 06 N, 80¬∞ 05 W",26.1,-80.08333,Florida,,,Ecology,0.5,,NA,,1 month (Feb 2017 to Mar 2017),,,,5,7,,NA,5-7m (?),Not mentioned,,,Not mentioned,,Not mentioned,,Yes,,,https://doi.org/10.1007/s00227-021-03847-6,,
Erik,Onset Computer Corporation,HOBO,Not mentioned,"Islas Marietas National Park, Mexico (3 coordinates available)",20.6996,-105.5702,Mexico,,,Ecology,1440,,NA,1d?,24 months (September 2018‚ÄìOctober 2020),,,,6,8,,NA,6-8m?,Not mentioned,,,Not mentioned,,Not mentioned,,Yes,all included,,https://doi.org/10.3390/d13090450,,
Jess,Onset Computer Corporation,HOBO,Not mentioned,"05520N, 162050W",5.8833,-162.0833,Line Islands,,,Management,0.0167,60,NA,1x/sec to 1x/60min,a few min to 731days,spanning 10-year period,,,10,,,NA,top 10m (values across top 10m averaged),Not mentioned,,,Not mentioned,,Not mentioned,,No,,"Gardner JPA, Bartz RJ, Brainard RE, Collen JD, Dunbar RB, Garton DW, Powell S (2014) Conservation management options and actions: Putative decline of coral cover at Palmyra Atoll, Northern Line Islands, as a case study. Marine Pollution Bulletin 84: 182-190",10.1016/j.marpolbul.2014.05.013,,compiled data from multiple loggers and CTDs
Jess,Onset Computer Corporation,HOBO,Not mentioned,"4 sites (Vipingo, Kanamai, Mombasa, Diani) in Southern Kenya",-4.04374,39.65887,Kenya,,,Ecology,60,180,NA,,365,,,,0.3,1,,NA,0.3-1 (at low tide),0.35,,,Not mentioned,,Yes,covered in black plastic and embedded in masonry cement to avoid light,No,,"Baker AC, McClanahan TR, Starger CJ, Boonstra RK (2013) Long-term monitoring of algal symbiont communities in corals reveals stability is taxon dependent and driven by site-specific thermal regime. Mar Ecol Prog Ser 479:85-97. https://doi.org/10.3354/meps10102",10.3354/meps10102,,
Wally,Onset Computer Corporation,HOBO,Not mentioned,Kenya,-4.04374,39.65887,Kenya,,,Ecology,1,3,NA,,18 years,,,,1,,,NA,,0.35,,,Not mentioned,,Yes,,No,,McClannahan et al. 2014,http://dx.doi.org/10.1111/maec.12225,,
Nicole,Onset Computer Corporation,HOBO Aquapro,HOBO Aquapro,"Yawzi Point, St. John, US Virgin Islands",18.3152,-64.7257,Caribbean,,,Ecology,15,30,NA,,1 yr & 1 yr 9 months (Ryan Industries thermistor),5 months & 2 yrs (Optic Stowaway loggers),,~10 yrs (HOBO Aqua Pro),11,,,NA,,0.2,,,Not mentioned,,Not mentioned,,Yes,,"Edmunds et al., 2021",http://dx.doi.org/10.1002/lno.11650,,
Lena,Onset Computer Corporation,HOBO Aquapro,HOBO Aquapro,"west Little Lameshur Bay (N 18¬∞ 19.023‚∏ç, W64¬∞ 43.682‚∏ç), Europa Bay (N 18¬∞ 18.996‚∏ç, W64¬∞ 43.793‚∏ç), White Point (N 18¬∞ 18.879‚∏ç, W64¬∞ 43.891‚∏ç), Cabritte Horn (), east Tektite (N 18¬∞ 18.657‚∏ç, W64¬∞ 43.312‚∏ç), and Neptune's Table (N 18¬∞ 18.739‚∏ç, W64¬∞ 43.379‚∏ç)",18.30702,-64.72132,Caribbean,,,Ecology,15,30,NA,15-30,"January 1992-April 1997, and November 1997 to August 1999","May 1997 to October 1997, and August 1999 to August 2001",August 2001 to August 2008,,11,9,9,NA,,0.3,0.2,,Not mentioned,,Not mentioned,,No,,"Brown and Edmunds, 2013",http://dx.doi.org/10.1016/j.jembe.2013.01.013,,
Jess,Onset Computer Corporation,HOBO MX-2201,HOBO MXTemp,"23.4423¬∞S, 151.9148¬∞E",-23.4423,151.9148,Australia,,,Ecology,Not mentioned,,NA,,53,,,,1,2,,NA,2-Jan,Not mentioned,,,Not mentioned,,Not mentioned,,Yes,,"Bergman JL, Leggat W and Ainsworth TD (2021) The Meta-Organism Response of the Environmental Generalist Pocillopora damicornis Exposed to Differential Accumulation of Heat Stress. Front. Mar. Sci. 8:664063. doi: 10.3389/fmars.2021.664063",10.3389/fmars.2021.664063,,
Wally,Onset Computer Corporation,HOBO MX-2201,HOBO MXTemp,"Sodwana Bay, South Africa (-27¬∫24'53.7"", 32¬∫43'35.8"")",-27.41492,32.72661,South Africa,,,Physical Oceanography,Not mentioned,,NA,,3 weeks,,,,Not mentioned,,,NA,,0.5,,,Not mentioned,,Not mentioned,,No,,Deoraj et al. 2022,http://dx.doi.org/10.1007/s10652-022-09896-9,,
Jess,Onset Computer Corporation,HOBO Pendant,HOBO Pendant,"27.91140¬∞N, ‚àí 93.59821¬∞W; 27.87429¬∞N, ‚àí‚Äâ93.82033¬∞W",27.9114,-93.59821,Texas,,,Ecology,15,,NA,,not explicitly stated,,,,20,45,,NA,,Not mentioned,,,Not mentioned,,Not mentioned,,No,,"Polinski, J.M., Voss, J.D. Evidence of photoacclimatization at mesophotic depths in the coral-Symbiodinium symbiosis at Flower Garden Banks National Marine Sanctuary and McGrail Bank. Coral Reefs 37, 779‚Äì789 (2018). https://doi.org/10.1007/s00338-018-1701-2",10.1007/s00338-018-1701-2,,
Jess,Onset Computer Corporation,HOBO Pendant,HOBO Pendant,"14.1750¬∞S, 169.6180¬∞W",-14.175,-169.618,Samoa,,,Ecology,12,,NA,,10,,,,Not mentioned,,,NA,,Not mentioned,,,Not mentioned,,Not mentioned,,No,,"Ruiz-Jones LJ, Palumbi SR (2015) Transcriptome-wide Changes in Coral Gene Expression at Noon and Midnight Under Field Conditions. The Biological Bulletin 228:3, 227-241",10.1086/BBLv228n3p227,,
Jess,Onset Computer Corporation,HOBO Pendant,HOBO Pendant,"32.804 N, 129.731 E; 32.187‚ÄÄN, 129.968‚ÄÄE",32.804,129.731,Japan,,,Ecology,30,30,NA,,approx. 4685,approx. 2190,,,9,5,,NA,,Not mentioned,not mentioned,,Not mentioned,,Not mentioned,,No,,"Suzuki G, Kadota T, Yatsuya K, et al. (2021) Occasional loss of fecundity in peripheral coral populations. Ecological Research 36:119‚Äì128. https://doi.org/10.1111/1440-1703. 12177",10.1111/1440-1703.12177,,
Jess,Onset Computer Corporation,HOBO Pendant,HOBO Pendant,"Bah√≠a de La Paz and Bah√≠a de Loreto, Gulf of California",25.84306,-111.21667,Mexico,Carmen Island,,Ecology,60,,NA,,478,354,,,3,,,NA,,Not mentioned,,,Not mentioned,,Not mentioned,,No,,"Rafael A. Cabral-Tena, David A. Paz-Garc√≠a, H√©ctor Reyes-Bonilla, Sergio S. Gonz√°lez-Pel√°ez, and Eduardo F. Balart ""Spatiotemporal Variability in Coral (Anthozoa: Scleractinia) Larval Recruitment in the Southern Gulf of California ,"" Pacific Science 72(4), 435-447, (1 October 2018). https://doi.org/10.2984/72.4.4",10.2984/72.4.4,,
Jess,Onset Computer Corporation,HOBO Pendant,HOBO Pendant,"22¬∞ 17.780N, 39¬∞ 04.444E",22.29633,39.07407,Saudi Arabia,,,Ecology,10,,NA,,29,,,,18,,,NA,,Not mentioned,,,Not mentioned,,Not mentioned,,No,,"van der Merwe R, R√∂thig T, Voolstra CR, Ochsenk√ºhn MA, Lattemann S and Amy GL (2014) High salinity tolerance of the Red Sea coral Fungia granulosa under desalination concentrate discharge conditions: an in situ photophysiology experiment. Front. Mar. Sci. 1:58. doi: 10.3389/fmars.2014.00058",10.3389/fmars.2014.00058,,
Gage,Onset Computer Corporation,HOBO Pendant,HOBO Pendant,Florida Keys,24.58588,-81.58143,Florida,,,Ecology,30,,NA,,8 yrs,,,,Not mentioned,,,NA,,Not mentioned,,,Not mentioned,,Not mentioned,,No,,Miller et al. 2016,http://dx.doi.org/10.1007/s00338-016-1472-6,,
Nicole,Onset Computer Corporation,HOBO Pendant,HOBO Pendant,"St. John, US Virgin Islands National Park",18.33107,-64.79486,Caribbean,,,Ecology,10,,NA,,84 days,,,,Not mentioned,,,NA,,Not mentioned,,,Not mentioned,,Not mentioned,,No,,"Lillis and Mooney, 2018",http://dx.doi.org/10.1007/s00338-018-1684-z,,
Lena,Onset Computer Corporation,HOBO Pendant,HOBO Pendant,"Meso-American Barrier Reef, Belize ()",16.80167,-88.08275,Belize,,,Ecology,Not mentioned,,NA,,12 months,,,,Not mentioned,,,NA,,Not mentioned,,,Not mentioned,,Not mentioned,,Yes,,"Pitts et al., 2020 ",http://dx.doi.org/10.1007/s00338-019-01888-4,,
Wally,Onset Computer Corporation,HOBO Pendant,HOBO Pendant,"Bocas del Toro, Panama",9.3408,-82.2408,Panama,,,Ecology,15,,NA,,1 yr,,,,5,19,,NA,,Not mentioned,,,Not mentioned,,Not mentioned,,No,,Rodas et al. 2020,http://dx.doi.org/10.1007/s00338-020-01979-7,,
Lena,Onset Computer Corporation,HOBO Pendant,HOBO Pendant,KƒÅne‚Äôohe Bay,20.433,-157.78633,Hawaii,Hawaii,,Ecology,Not mentioned,,NA,,56 days,,,,Not mentioned,,,NA,,Not mentioned,,,Not mentioned,,Not mentioned,,No,,"Dilworth et al., 2021",http://dx.doi.org/10.1007/s00338-020-02024-3,Mentioned that they used triplicate loggers ,
Nicole,Onset Computer Corporation,HOBO Pendant,HOBO Pendant,"One Tree Island (23¬∞30' S, 152¬∞06' E) and Lizard Island (), Great Barrier Reef, Australia",-14.66667,145.46667,Australia,,,Ecology,60,,NA,,Not mentioned,,,,Not mentioned,,,NA,,Not mentioned,,,Not mentioned,,Not mentioned,,No,,"Booth and Beretta, 2021",http://dx.doi.org/10.1007/s00338-021-02134-6,,
Lena,Onset Computer Corporation,HOBO Pendant,HOBO Pendant,Sal Island (Cape Verde) ,16.85,-22.9167,Cape Verde,,,Ecology,15,,NA,,8 months (April-Dec 2009),,,,5,10,,NA,"5-6, 10-11",Not mentioned,,,Not mentioned,,Not mentioned,,No,,"Monteiro et al., 2013",http://dx.doi.org/10.1007/s12526-013-0153-8,Mentioned that they cleaned the loggers every 15-20 days to avoid fouling,
Lena,Onset Computer Corporation,HOBO Pendant,HOBO Pendant,"Florida Reef Track (Broward County (BWD), Middle Keys (MDK), and Dry Tortugas (DRTO)",24.58588,-81.58143,Florida,,,Ecology,120,,NA,,"BWD June 2011‚ÄìJuly 2015, MDK July 2011‚ÄìNovember 2014, and DRTO April 2012‚ÄìJune 2015",,,,Not mentioned,,,NA,,Not mentioned,,,Not mentioned,,Not mentioned,,No,,"Goergen et al., 2020",http://dx.doi.org/10.1016/bs.amb.2020.08.004,,
Wally,Onset Computer Corporation,HOBO Pendant,HOBO Pendant,American Samoa,14.271,170.1322,Samoa,,,Ecology,10,,NA,,15 days,,,,Not mentioned,,,NA,,Not mentioned,,,Not mentioned,,Not mentioned,,No,,Ruiz-Jones and Palumbi 2019,http://dx.doi.org/10.1016/j.jembe.2019.05.003,,
Wally,Onset Computer Corporation,HOBO Pendant,HOBO Pendant,"Plibara coast, Austraia ()",-21.91845,114.4335,Australia,,,Ecology,60,,NA,,1 year,,,,Not mentioned,,,NA,,Not mentioned,,,Not mentioned,,Not mentioned,,No,,Dee et al. 2021,http://dx.doi.org/10.1016/j.marenvres.2021.105386,,
Nicole,Onset Computer Corporation,HOBO Pendant,HOBO Pendant,Little Cayman,19.6833,-80.05,Caribbean,,,Ecology,Not mentioned,,NA,"""Continuously""",3 months,,,,1,10,16,NA,"1,10, and 16",Not mentioned,,,Not mentioned,,Not mentioned,,No,,"Lohr et al., 2017",http://dx.doi.org/10.1016/j.rsma.2016.11.003,,
Gage,Onset Computer Corporation,HOBO Pendant,HOBO Pendant,"Jeju Island, South Korea and Penghu, Taiwan",33.3846,126.5535,South Korea,Cheju Do,,Ecology,60,10,NA,,31 days,,,,10,2,,NA,,Not mentioned,,,Not mentioned,,Not mentioned,,Yes,,Keshavmurthy et al. 2021,http://dx.doi.org/10.1016/j.scitotenv.2020.143628,,
Wally,Onset Computer Corporation,HOBO Pendant,HOBO Pendant,"ISla Marietas national park, Mexico (, ",20.71306,-105.555,Mexico,,,Ecology,15,,NA,,1 year,,,,Not mentioned,,,NA,,Not mentioned,,,Not mentioned,,Not mentioned,,No,,Rodriguez-Troncoso et al. 2019,http://dx.doi.org/10.1016/j.seares.2018.12.007,,
Wally,Onset Computer Corporation,HOBO Pendant,HOBO Pendant,"Tahala Reef, Saudi Arabia",22.2757,39.1133,Saudi Arabia,,,Ecology,15,,NA,,4 months,,,,Not mentioned,,,NA,,Not mentioned,,,Not mentioned,,Not mentioned,,Yes,,Voolstra et al. 2020,http://dx.doi.org/10.1111/gcb.15148,,
Wally,Onset Computer Corporation,HOBO Pendant,HOBO Pendant,"Matapolo, Costa Rica",8.3982,-83.2814,Costa Rica,,,Ecology,Not mentioned,,NA,,Not mentioned,,,,Not mentioned,,,NA,,Not mentioned,,,Not mentioned,,Not mentioned,,No,,Stuhldreier et al. 2015,http://dx.doi.org/10.3389/fmars.2015.00113,,
Lena,Onset Computer Corporation,HOBO Pendant,HOBO Pendant,"Hurricane Hole, US Virgin Islands",18.3448,-64.697,Caribbean,Saint John,,Ecology,120,,NA,,"2005, 2010-2011",,,,Not mentioned,,,NA,,Not mentioned,,,Not mentioned,,Not mentioned,,Yes,,"Yates et al., 2014",http://dx.doi.org/10.5194/bg-11-4321-2014,,
Wally,Onset Computer Corporation,HOBO Pendant,HOBO Pendant,"Luhuitou, China",18.2217,109.5009,China,,,Ecology,Not mentioned,,NA,,4 years,,,,3,,,NA,,Not mentioned,,,Not mentioned,,Not mentioned,,No,,Jiang et al. 2017,http://dx.doi.org/10.5194/bg-14-5741-2017,,
Erik,Onset Computer Corporation,HOBO Pendant,HOBO Pendant,"O‚Äòahu, Hawai‚Äòi (4 sites)",21.30694,-157.85833,Hawaii,Hawaii,Oahu,Ecology,Not mentioned,,NA,daily avg presented but ,24 months (7 Aug 2015 to 7 Aug 2017),,,,1,9,,NA,1-9 m (?),Not mentioned,,,Not mentioned,,Not mentioned,,Yes,,,https://doi.org/10.1111/1365-2435.13653,,
Lena,Onset Computer Corporation,HOBO Pendant,HOBO Pendant,"(22¬∞32‚Ä≤ N, 114¬∞25‚Ä≤ E)",22.53333,114.41667,China,,,Physical Oceanography?,30,,NA,,48 months,,,,1,,,NA,,Not mentioned,,,Not mentioned,,Not mentioned,,No,,"Yi Chui et al., 2016",http://dx.doi.org/10.1016/j.rsma.2016.04.004,,
Lena,Onset Computer Corporation,HOBO Pendant,HOBO Pendant,"0.3744¬∞S, 159.9967¬∞W",-0.3744,-159.9967,Line Islands,,,Ecology,30,,NA,,2010-2016,,,,Not mentioned,,,NA,,Not mentioned,,,Not mentioned,,Yes,,No,?,"Williams et al., 2017",http://dx.doi.org/10.1016/j.marpolbul.2017.07.001,,
Wally,Onset Computer Corporation,HOBO Pendant,HOBO Pendant,"Heron Island, Australia",-23.45,151.91667,Australia,,,Ecology,30,,NA,,1 year,,,,Not mentioned,,,NA,,Not mentioned,,,Not mentioned,,Yes,Yes (but see notes),No,,Nay et al. 2020,http://dx.doi.org/10.1111/jfb.14616,"They said ""to protect the logger it was placed ina. PVC tube"" but didn't make mention of hte sun",
Jess,Onset Computer Corporation,HOBO Pendant ,HOBO Pendant,"The Arch, Lord Howe Island, Australia",-31.55,159.0833,Australia,,,Ecology,15,,NA,,approx. 342,,,,11.6,,,NA,,Not mentioned,,,Not mentioned,,Not mentioned,,No,,"Wilkinson, S.P., Pontasch, S., Fisher, P.L. et al. The distribution of intra-genomically variable dinoflagellate symbionts at Lord Howe Island, Australia. Coral Reefs 35, 565‚Äì576 (2016). https://doi.org/10.1007/s00338-015-1357-0",10.1007/s00338-015-1357-0,validated against logger operated by AIMS,
Nicole,Onset Computer Corporation,HOBO Pendant ,HOBO Pendant,"Heron Island, southern Great Barrier Reef () ",-23.45,151.91667,Australia,,,Ecology,Not mentioned,,NA,"""Continuously""",2 months,,,,2,8,,NA,8-Feb,Not mentioned,,,Not mentioned,,Not mentioned,,No,,"Rathbone et al., 2022",http://dx.doi.org/10.1002/lno.11991,,
Nicole,Onset Computer Corporation,HOBO Pendant ,HOBO Pendant,"Isla Larga and Isla Redonda, Central Mexican Pacific",20.71394,-105.565,Mexico,,,Ecology,15,,NA,,"~ 4 years, 9 months",,,,7,,,NA,,Not mentioned,,,Not mentioned,,Not mentioned,,No,,"Cruz-Garcia et al., 2020",http://dx.doi.org/10.1071/MF18481,each sensor was replaced every two months,
Lena,Onset Computer Corporation,HOBO Pendant ,HOBO Pendant,"KƒÅne‚Äòohe Bay on O‚Äòahu Hawai‚Äòi, USA",20.433,-157.78633,Hawaii,Hawaii,,Ecology,15,,NA,,October 2014-December 2015,,,,2,,,NA,,Not mentioned,,,Yes,,Yes,,Yes,?,"Ritson-Williams et al., 2020",http://dx.doi.org/10.1007/s00338-020-01944-4,,
Lena,Onset Computer Corporation,HOBO Pendant 64K,HOBO Pendant,"Bocas del Toro, Panama",9.3408,-82.2408,Panama,,,Ecology,Not mentioned,,NA,,7,,,,Not mentioned,,,NA,,Not mentioned,,,Not mentioned,,Yes,,No,,"Stewart et al., 2021",http://dx.doi.org/10.1002/ecs2.3413,Protection from sun was more to mimic mangrove shading rather than to avoid potential distortion to temperature measurements ,
Lena,Onset Computer Corporation,HOBO Pendant MX2202,HOBO MXTemp/Light,"Rio do Fogo, Northeast Brazil (",-5.2746,-35.3825,Brazil,,,Ecology,15,,NA,,~90 days (3 months),,,,Not mentioned,,,NA,,Not mentioned,,"(did mentioned light measurement accuracy, 4606 lx‚Äâ¬±‚Äâ327 SE",Yes,,Not mentioned,,No,,Lonzetti et al. 2022,http://dx.doi.org/10.1007/s00338-021-02212-9,,
Nicole,Onset Computer Corporation,HOBO Pendant Temp,HOBO Pendant Temp,"Normanby Island (9.49¬∞S, 150.49¬∞E), Papua New Guinea",-9.49,150.49,Papua New Guinea,Fergusson Island,,Biogeochemistry,Not mentioned,,NA,"""Continuously""",5-11 days,,,,Not mentioned,,,NA,"""2‚Äì5 cm above the sediment surface""",Not mentioned,,,Not mentioned,,Not mentioned,,No,,"Lichtschlag et al., 2022",http://dx.doi.org/10.1002/lno.12017,,
Gage,Onset Computer Corporation,HOBO Pendant Temp,HOBO Pendant Temp,"Hengam Island, Persian Gulf (, )",26.65875,55.91652,United Arab Emirates,,,Biogeochemistry,Not mentioned,,NA,,2.5 yrs,,,,4,,,NA,,Not mentioned,,,Not mentioned,,Not mentioned,,Yes,,Samiei et al. 2016,http://dx.doi.org/10.1007/s00338-016-1464-6,,
Nicole,Onset Computer Corporation,HOBO Pendant Temp,HOBO Pendant Temp,"Warnbro Sound, South-West Australia",-32.34,115.747,Australia,,,Ecology,1440,,NA,10 min once a day,5-8 days,5-8 days,5-8 days,5-8 days,19,24,,NA,19-24m,Not mentioned,,,Not mentioned,,Not mentioned,,No,,"Munks et al., 2015",http://dx.doi.org/10.1016/j.jembe.2015.06.006,,
Gage,Onset Computer Corporation,HOBO Pendant Temp,HOBO Pendant Temp,"Ofu Island, America Samoa () ",-14.17808,-169.66011,Samoa,,,Ecology,15,,NA,,1 year,,,,Not mentioned,,,NA,,Not mentioned,,,Not mentioned,,Not mentioned,,Yes,,Klepac and Barshis 2020,http://dx.doi.org/10.1098/rspb.2020.1379,,
Nicole,Onset Computer Corporation,HOBO Pendant Temp,HOBO Pendant Temp,"Southeast Florida (e.g.,  & 25¬∫40.707' N, 80¬∫07.111 W)",27.13167,-80.14033,Florida,,,Ecology,120,,NA,,9.5 yrs,,,,Not mentioned,,,NA,,Not mentioned,,,Not mentioned,,Not mentioned,,Yes,,"Walton et al., 2018",http://dx.doi.org/10.3389/fmars.2018.00323,sensors replaced yearly,
Nicole,Onset Computer Corporation,HOBO Pendant Temp,HOBO Pendant Temp,"A‚Äòalapapa Reef (offshore from Lanikai Beach), O‚Äòahu, Hawai‚Äòi",21.39473,-157.71584,Hawaii,Hawaii,Oahu,Ecology,Not mentioned,,NA,,1 yr 5 months,,,,Not mentioned,,,NA,,Not mentioned,,,Not mentioned,,Yes,"Yes (""Loggers were wrapped in reflective tape to avoid overheating and subsequent misrepresentation of water temperature (Bahr et al. 2016)"")",No,,"Sale et al., 2019",http://dx.doi.org/10.3354/meps13031,,
Nicole,Onset Computer Corporation,HOBO Pendant Temp/Alarm 64k,HOBO Pendant Temp,"Fsar (22¬∞ 13.957 N 39¬∞ 01.816‚Ä≤ E) & Abu Madafi, Saudi Arabia, Red Sea",22.08682,38.77833,Saudi Arabia,,,Ecology,60,,NA,,~5 months,,,,1,15,,NA,,Not mentioned,,,Not mentioned,,Not mentioned,,No,,"Hume et al., 2020",http://dx.doi.org/10.1007/s00338-020-01917-7,,
Jess,Onset Computer Corporation,HOBO Pendant Temp/Light,HOBO Pendant Temp/Light,26¬∞38‚Ä≤36.40‚Ä≥ N; 127¬∞51‚Ä≤49.55‚Ä≥ E,26.64344,127.86376,Japan,,,Ecology,60,,NA,,approx. 150,,,,0,2.5,,NA,0-2.5,Not mentioned,,,Yes,,Not mentioned,,Yes,,"Das RR, Wada H, Masucci GD, Singh T, Tavakoli-Kolour P, Wada N, Tang S-L, Yamashiro H, Reimer JD. Four-Year Field Survey of Black Band Disease and Skeletal Growth Anomalies in Encrusting Montipora spp. Corals around Sesoko Island, Okinawa. Diversity. 2022; 14(1):32. https://doi.org/10.3390/d14010032",10.3390/d14010032,,
Wally,Onset Computer Corporation,HOBO Pendant Temp/Light,HOBO Pendant Temp/Light,"Davies Reef, Australia (, )",-18.83002,147.65162,Australia,,,Ecology,Not mentioned,,NA,,7 months,,,,5,10,15,NA,,Not mentioned,,,Not mentioned,,Not mentioned,,No,,Anderson et al. 2018,http://dx.doi.org/10.1007/s00338-018-1666-1,,
Wally,Onset Computer Corporation,HOBO Pendant Temp/Light,HOBO Pendant Temp/Light,"Faafu Atoll, Maldives",3.2309,72.9461,Maldives,,,Ecology,30,,NA,,5 days,,,,2,,,NA,,Not mentioned,,,Not mentioned,,Not mentioned,,No,,Seveso et al. 2018,http://dx.doi.org/10.1007/s00338-018-1703-0,,
Wally,Onset Computer Corporation,HOBO Pendant Temp/Light,HOBO Pendant Temp/Light,"Zihuatanejo, Mexico",17.64167,-101.5517,Mexico,,,Ecology,5,,NA,,3 days,,,,5,,,NA,,Not mentioned,,,Not mentioned,,Not mentioned,,No,,Nava et al. 2019,http://dx.doi.org/10.1017/S0025315418000899,,
Wally,Onset Computer Corporation,HOBO Pendant Temp/Light,HOBO Pendant Temp/Light,"Florida Keys ( ,  )",24.58588,-81.58143,Florida,,,Ecology,60,,NA,,1 yr,,,,3,,,NA,,0.53,,,Not mentioned,,Not mentioned,,No,,Kenkel et al. 2015,http://dx.doi.org/10.1890/14-2297.1,,
Lena,Onset Computer Corporation,HOBO Pendant Temp/Light,HOBO Pendant Temp/Light,"(25.824 N, ‚àí77.91 W)",25.824,-77.91,Florida,,,Ecology,120,,NA,,Not mentioned,,,,Not mentioned,,,NA,,Not mentioned,,,Not mentioned,,Not mentioned,,No,,"VanWynen et al., 2021",http://dx.doi.org/10.3389/fmars.2021.669966,,
Wally,Onset Computer Corporation,HOBO Pendant Temp/Light,HOBO Pendant Temp/Light,Puerto Rico,18.46633,-66.10572,Caribbean,,,Physical Oceanography,15,,NA,,3 years,,,,1,13,,NA,,0.53,,,Yes,,Not mentioned,,Yes,,Gomez et al. 2020,http://dx.doi.org/10.3390/jmse8060453,Range of depths between 1-13m,
Jess,Onset Computer Corporation,HOBO Pendant Temp/Light 64k,HOBO Pendant Temp/Light,"4 sites from the Hija River mouth and along the adjacent Mizugama coast, Okinawa, Japan",26.3601,127.7437,Japan,Okinawa,,Ecology,60,,NA,,approx. 600 but loggers replaced as necessary,,,,2,10,,NA,,Not mentioned,,,Not mentioned,,Not mentioned,,No,,"Wee HB, Kobayashi Y, Reimer JD (2021) Effects of temperature, salinity, and depth on Symbiodiniaceae lineages hosted by Palythoa tuberculosa near a river mouth. Mar Ecol Prog Ser 667:43-60. https://doi.org/10.3354/meps13706",10.3354/meps13706,,
Jess,Onset Computer Corporation,HOBO Pendant Temp/Light 64k,HOBO Pendant Temp/Light,"21¬∞ 16‚Äô 10‚Äù N, 157¬∞ 50‚Äô 15‚Äù W",21.26944,-157.8375,Hawaii,Hawaii,,Ecology,Not mentioned,,NA,,not explicitly stated but present 365d of data,,,,12,18,5,NA,,0.53,,,Not mentioned,,Not mentioned,,No,,"Jones R, Brush E, Dilley E, Hixon M (2021). Autumn coral bleaching in Hawai‚Äòi. Marine Ecology Progress Series. 675. 10.3354/meps13837. ",10.3354/meps13837,,
Gage,Onset Computer Corporation,HOBO Pendant Temp/Light 64k,HOBO Pendant Temp/Light,"Little Cayman Island, Caribbean",19.6833,-80.05,Caribbean,,,Ecology,30,,NA,,7 months,,,,6,16,,NA,"6-8, 16-18",Not mentioned,,,Not mentioned,,Not mentioned,,Yes,,Maneval et al. 2021,http://dx.doi.org/10.3389/fmars.2021.670474,,
Nicole,Onset Computer Corporation,HOBO Pendant Temp/Light 64k UA-002-64,HOBO Pendant Temp/Light,"Punta Soldado Reef (PTS), Culebra Island, Puerto Rico",18.30301,-65.30099,Caribbean,,,Ecology,15,,NA,,30-40 days,,,,5,8,12,NA,,Not mentioned,,,Not mentioned,,Not mentioned,,No,,"Ruiz-Diaz et al., 2022",http://dx.doi.org/10.3390/w14020212,sensors replaced monthly,
Nicole,Onset Computer Corporation,HOBO Pendant thermographs,HOBO Pendant,"Isla Larga (20.699167¬∞ N, 105.582111¬∞ W), Isla Redonda (, ) and Punta de Mita (20.76¬∞ N, 105.54¬∞ W), Central Mexican Pacific",20.71394,-105.565,Mexico,,,Ecology,15,,NA,,~ 2 yrs,,,,5,16,,NA,16-May,Not mentioned,,,Not mentioned,,Not mentioned,,No,,"Mart√≠nez-Castillo et al., 2020",http://dx.doi.org/10.1007/s00338-020-01957-z,each sensor was replaced every two months,
Lena,Onset Computer Corporation,HOBO Pendant UA-001,HOBO Pendant Temp,"Central Maldives (Dinoluga, Hulhumale, Mathiveri)",1.92499,73.39966,Maldives,,,Biogeochemistry,15,,NA,,9 days in April 2015,,,,10,30,,NA,,Not mentioned,,,Not mentioned,,Not mentioned,,Yes,,Radice et al. 2022,http://dx.doi.org/10.1002/lno.12157,,
Wally,Onset Computer Corporation,HOBO Pendant UA-001-64,HOBO Pendant Temp,"Maui, Hawaii",20.79836,-156.33192,Hawaii,Hawaii,Maui,Ecology,10,,NA,,Not mentioned,,,,Not mentioned,,,NA,,Not mentioned,,,Not mentioned,,Not mentioned,,No,,Kaplan et al. 2018,http://dx.doi.org/10.1007/s00338-017-1638-x,,
Wally,Onset Computer Corporation,HOBO Pendant UA-001-64,HOBO Pendant Temp,"Heron Island, Australia (, )",-23.45,151.91667,Australia,,,Ecology,60,,NA,,1 yr,,,,0.7,8,,NA,,0.552,,,Yes,,Not mentioned,,No,,Brown et al. 2023,http://dx.doi.org/10.1007/s00338-022-02328-6,,
Wally,Onset Computer Corporation,HOBO Pendant UA-001-64,HOBO Pendant Temp,"Heron Island, Australia",-23.45,151.91667,Australia,,,Ecology,60,,NA,,1 yr,,,,5,8,Not mentioned,NA,reef crest,Not mentioned,,,Not mentioned,,Not mentioned,,Yes,,Brown et al. 2021,http://dx.doi.org/10.3389/fmars.2018.00181,,
Wally,Onset Computer Corporation,HOBO Pendant UA-001-64,HOBO Pendant Temp,"Farasan Banks, Saudi Arabia",16.7035,41.98333,Saudi Arabia,Jazair Farasan,South,Physical Oceanography,15,60,NA,,1 yr ,2 yr,,,1,11,28,NA,,0.21,0.21,,Yes,,Yes,,Yes,,DeCarlo et al. 2021,http://dx.doi.org/10.1029/2020JC016493,Range of depths and durations but these were listed specifically ,
Lena,Onset Computer Corporation,HOBO Pendant UA-001-64 ,HOBO Pendant Temp,18¬∞ 36‚Ä≤3.6‚Ä≥S 146¬∞ 29‚Ä≤20.4‚Ä≥E,-18.601,146.489,Australia,,,Ecology,30,,NA,,12 months,,,,2,3,,NA,2-3m,Not mentioned,,,Not mentioned,,Not mentioned,,Yes,?,"Epstein et al., 2019", http://dx.doi.org/10.1007/s00338-019-01783-y,,
Wally,Onset Computer Corporation,Hobo pendant UA-002-08,HOBO Pendant Temp/Light,Bahamas,25.0343,-77.3963,Bahamas,New Providence Island,,Ecology,15,,NA,,5 months,,,,2.5,3.3,,NA,,Not mentioned,,,Not mentioned,,Not mentioned,,No,,Parker et al. 2020,http://dx.doi.org/10.1007/s00338-020-01948-0,,
Nicole,Onset Computer Corporation,HOBO Pendant UA-002-64,HOBO Pendant Temp/Light,"Suva harbour ( Latitude and  Longitude), Fiji",-18.16667,178.41667,Fiji,,,Ecology,10,,NA,,1 yr,,,,Not mentioned,Not mentioned,,NA,Depth 1 (shallow); Depth 2 (deep),Not mentioned,,,Not mentioned,,Not mentioned,,Yes,,"Lal et al., 2018",http://dx.doi.org/10.1002/ece3.4641,,
Nicole,Onset Computer Corporation,HOBO Pendant UA-002-64,HOBO Pendant Temp/Light,"Jordan (,)",29.45861,34.97389,Jordan,,,Ecology,1,,NA,,4 weeks,4 weeks,4 weeks,4 weeks ,10,,,NA,,0.53,,,Not mentioned,,Not mentioned,,No,,"van Hoytema et al., 2016",http://dx.doi.org/10.1007/s00227-015-2787-5,,
Lena,Onset Computer Corporation,HOBO Pendant UA-002-64,HOBO Pendant Temp/Light,"Culebra, Puerto Rico (, )",18.316,-65.284,Caribbean,,,Ecology,60,,NA,,456 days,,,,2.65,,,NA,,Not mentioned,,,Not mentioned,,Not mentioned,,No,,Brownscombe et al. 2019,http://dx.doi.org/10.1007/s00227-018-3464-2,"Temp loggers were on 13/25 tags distributed over a huge amount of area and were monitoring several different systems, with coral reefs only being one of them",
Wally,Onset Computer Corporation,HOBO Pendant UA-002-64,HOBO Pendant Temp/Light,"Maui, Hawaii",20.79836,-156.33192,Hawaii,Hawaii,Maui,Ecology,10,,NA,,Not mentioned,,,,Not mentioned,,,NA,,Not mentioned,,,Not mentioned,,Not mentioned,,No,,Kaplan et al. 2018,http://dx.doi.org/10.1007/s00338-017-1638-x,,
Wally,Onset Computer Corporation,HOBO Pendant UA-002-64,HOBO Pendant Temp/Light,Palau,7.51498,134.58252,Palau,Babelthuap,,Ecology,60,,NA,,21 months,,,,4,,,NA,,Not mentioned,,,Not mentioned,,Not mentioned,,No,,Gouezo et al. 2020,http://dx.doi.org/10.1007/s00338-020-01941-7,,
Lena,Onset Computer Corporation,HOBO Pendant UA-002-64,HOBO Pendant Temp/Light,"(29¬∞ 27‚Äô N, 34¬∞ 58‚Äô E)",29.45,34.96667,Jordan,,,Ecology,Not mentioned,,NA,,28,,,,10,,,NA,,0.53,,,Not mentioned,,Not mentioned,,No,,"Bednarz et al., 2015",http://dx.doi.org/10.3354/meps11091,,
Nicole,Onset Computer Corporation,HOBO Pendant UA-002-64,HOBO Pendant Temp/Light,"Gulf of Aqaba at the Marine Science Station (MSS) Aqaba, Jordan (, )",29.45,34.96667,Jordan,,,Ecology,1,,NA,,4 weeks,,,,10,,,NA,,0.53,,,Not mentioned,,Not mentioned,,No,,"Rix et al., 2015",http://dx.doi.org/10.3354/meps11383,,
Nicole,Onset Computer Corporation,HOBO Pendant UA-002-64,HOBO Pendant Temp/Light,Malathu,19.75,39.9,Saudi Arabia,,,Physical Oceanography,5,,NA,,1 month,,,,6,12,22,32,"6, 7, 12, 17, 22, 27, 32 and 37 m",Not mentioned,,,Not mentioned,,Not mentioned,,No,,"Cagua et al., 2013",http://dx.doi.org/10.1007/s00338-013-1069-2,,
Jess,Onset Computer Corporation,HOBO Pendant UA-002‚Äì64,HOBO Pendant Temp/Light,"32.804 N, 129.731 E; 32.187‚ÄÄN, 129.968‚ÄÄE",32.804,129.731,Japan,,,Ecology,30,30,NA,,approx. 4685,approx. 2190,,,9,5,,NA,,Not mentioned,not mentioned,,Not mentioned,,Not mentioned,,No,,"Suzuki G, Kadota T, Yatsuya K, et al. (2021) Occasional loss of fecundity in peripheral coral populations. Ecological Research 36:119‚Äì128. https://doi.org/10.1111/1440-1703. 12177",10.1111/1440-1703.12177,,
Gage,Onset Computer Corporation,HOBO Pendant UA-002‚Äì64,HOBO Pendant Temp/Light,"Yucatan, Mexico (, (21¬∞ 33‚Ä≤ 30.15‚Ä≥ N, 88¬∞ 17‚Ä≤ 24.9‚Ä≥ W)",21.57514,-88.29365,Mexico,,,Ecology,Not mentioned,,NA,,1 yr,,,,Not mentioned,,,NA,,Not mentioned,,,Not mentioned,,Not mentioned,,No,,Ortegon-Aznar et al. 2017,http://dx.doi.org/10.1007/s10811-017-1057-y,,
Lena,Onset Computer Corporation,HOBO Pendant UA-002‚Äì64,HOBO Pendant Temp/Light,"Moorea, French Polynesia",-17.5,-149.83333,French Polynesia,Moorea,,Ecology,10,,NA,,1460,,,,Not mentioned,,,NA,,0.5,,,Not mentioned,,Not mentioned,,Yes,,"Bouyoucos et al., 2022)",http://dx.doi.org/10.3354/meps13941,,
Jess,Onset Computer Corporation,HOBO Pendant UA-002‚Äì64 ,HOBO Pendant Temp/Light,"23.537045¬∫N, 119.61449¬∫E",23.53705,119.61449,Taiwan,,,Ecology,15,,NA,,approx. 25,,,,6,,,NA,,0.5,,,Not mentioned,,Not mentioned,,No,,"Carpenter, G.E., Denis, V., Fan, TY. et al. Effects of thermal history on the responses to thermal stress of a large benthic foraminifera, Calcarina gaudichaudii. Coral Reefs 40, 1879‚Äì1888 (2021). https://doi.org/10.1007/s00338-021-02186-8",10.1007/s00338-021-02186-8,macroalgal dominated coral reefs,
Jess,Onset Computer Corporation,HOBO Pendant UA-002‚Äì64 ,HOBO Pendant Temp/Light,"16¬∞24.716‚Ä≤N, 119¬∞54.262‚Ä≤E; 16¬∞26.583‚Ä≤N, 119¬∞57.016‚Ä≤E",16.41193,119.90437,Philippines,,,Ecology,Not mentioned,,NA,,approx. 455,,,,5,,,NA,,Not mentioned,,,Not mentioned,,Not mentioned,,No,,"Nada MAL, Baquiran JIP, Cabaitan PC, Conaco C. Behavior and development of larvae in the sponge Haliclona amboinensis. Invertebr Biol. 2020;00:e12296. https://doi.org/10.1111/ivb.12296",10.1111/ivb.12296,,
Nicole,Onset Computer Corporation,HOBO Pendant UA-002‚Äì64 ,HOBO Pendant Temp/Light,Ko Khang Khao Island (),13.11289,100.80511,Thailand,,,Ecology,60,,NA,,4 months,4 months,,,Not mentioned,,,NA,"""on the substrate of coral communities""",Not mentioned,,,Not mentioned,,Not mentioned,,No,,"Pengsakun et al., 2019",http://dx.doi.org/10.1007/s13131-019-1376-8,,
Nicole,Onset Computer Corporation,HOBO Pendant UA-002‚Äì64 ,HOBO Pendant Temp/Light,"Moorea, French Polynesia (S 17¬∞30‚Ä≤; W 149¬∞50‚Ä≤)",-17.5,-149.83333,French Polynesia,Moorea,,Ecology,10,,NA,,"~ 4 yrs, 3 months",,,,Not mentioned,,,NA,,0.5,,,Not mentioned,,Not mentioned,,Yes,,"Bouyoucos et al., 2021",http://dx.doi.org/10.1016/j.scitotenv.2021.146854,,
Nicole,Onset Computer Corporation,HOBO Pendant UA-002‚Äì64 ,HOBO Pendant Temp/Light,"Oaxaca, Southern Mexico, from Mazunte to Montosa Island",17.0654,-96.7237,Mexico,,,Ecology,60,,NA,,~1 yr,,,,Not mentioned,,,NA,,0.53,,,Not mentioned,,Not mentioned,,No,,"Lopez-Perez et al., 2016",http://dx.doi.org/10.2984/70.2.4,,
Jess,Onset Computer Corporation,"HOBO Pendant, Microdaq",HOBO Pendant,"33¬∞48‚Ä≤3‚Ä≥S, 151¬∞16‚Ä≤30‚Ä≥E, 33¬∞49‚Ä≤29‚Ä≥S, 151¬∞15‚Ä≤47‚Ä≥E",-33.80083,151.275,Australia,,,Ecology,30,,NA,,395,,,,2,7,,NA,7-Feb,Not mentioned,,,Not mentioned,,Not mentioned,,No,,"Goyen, S., Camp, E.F., Fujise, L. et al. Mass coral bleaching of P. versipora in Sydney Harbour driven by the 2015‚Äì2016 heatwave. Coral Reefs 38, 815‚Äì830 (2019). https://doi.org/10.1007/s00338-019-01797-6",10.1007/s00338-019-01797-6,,
Jess,Onset Computer Corporation,HOBO Pro,HOBO Pro,throughout Florida Keys,24.6914,-81.18968,Florida,,,Ecology,60,,NA,,709 -1475,,,,Not mentioned,,,NA,,Not mentioned,,,Not mentioned,,Not mentioned,,Upon request,,"Brownscombe J, Griffin L, Morley D, Acosta A, Boucek R, Adams A, Danylchuk A, Cooke S. (2022). Spatial-temporal patterns of Permit (Trachinotus falcatus) habitat residency in the Florida Keys, USA. Environmental Biology of Fishes. 106. 1-13. 10.1007/s10641-022-01332-7. ",10.1007/s10641-022-01332-7,,
Lena,Onset Computer Corporation,HOBO Pro,HOBO Pro,"6 sites around Thuwal, Saudi Arabia",22.2757,39.1133,Saudi Arabia,,,Ecology,6.5,15,NA,,2 years?,,,,10,15,,NA,10-15m,Not mentioned,,,Not mentioned,,Not mentioned,,No,,"Pineda et al., 2013",http://dx.doi.org/10.4319/lo.2013.58.5.1531,,
Lena,Onset Computer Corporation,HOBO Pro H20-001,HOBO Pro,"Stetson Bank, NW Gulf of Mexico",28.2,-94.3,Texas,,,Ecology,60,,NA,,"1993‚Äì1995, 2002‚Äì2008",2008,,,23.5,,,NA,,Not mentioned,,,Not mentioned,,Not mentioned,,No,?,"DeBose et al., 2013",http://dx.doi.org/10.1007/s00338-012-0971-3,,
Lena,Onset Computer Corporation,HOBO Pro V2,HOBO Pro,"Kikai Island, Japan",28.3216,129.971,Japan,,,Biogeochemistry,60,,NA,,30,,,,Not mentioned,,,NA,,0.2,,,Not mentioned,,Not mentioned,,Yes,,"Watanabe et al., 2020",http://dx.doi.org/10.1002/lom3.10357,,
Erik,Onset Computer Corporation,HOBO Pro V2,HOBO Pro,"Dry Tortugas National Park, Florida, US",24.6333,-82.9187,Florida,,,Biogeochemistry,15,,NA,,since 2009,,,,5.5,,,NA,,Not mentioned,,,Not mentioned,,Not mentioned,,No,,,http://dx.doi.org/10.1029/2018PA003389,,
Gage,Onset Computer Corporation,HOBO Pro V2,HOBO Pro,"Moorea, French Polynesia",-17.5,-149.83333,French Polynesia,Moorea,,Biogeochemistry,10,,NA,,28 hours,,,,1.5,,,NA,,0.2,,,Not mentioned,,Not mentioned,,No,,Wall and Edmunds 2013,http://dx.doi.org/10.1086/BBLv225n2p92,,
Jess,Onset Computer Corporation,HOBO Pro V2,HOBO Pro,"Bocas del Toro, Panama",9.3408,-82.2408,Panama,,,Ecology,15,,NA,,225,,,,0.5,,,NA,,0.25,,,Not mentioned,,Not mentioned,,No,,"Collin R, Rendina F, Goodwin V, McCabe S (2018) Do tropical specialist sea urchins have higher thermal tolerances and optimal temperatures than their more widely distributed relatives?. Mar Ecol Prog Ser 589:153-166. https://doi.org/10.3354/meps12487",10.3354/meps12487,"only included info pertaining to temp loggers placed over coral reef, other (excluded) sensors were placed over seagrass and coral rubble",
Jess,Onset Computer Corporation,HOBO Pro V2,HOBO Pro,26¬∞38‚Ä≤36.40‚Ä≥ N; 127¬∞51‚Ä≤49.55‚Ä≥ E,26.64344,127.86376,Japan,,,Ecology,60,,NA,,approx. 150,,,,0,2.5,,NA,0-2.5,Not mentioned,,,Yes,,Not mentioned,,Yes,,"Das RR, Wada H, Masucci GD, Singh T, Tavakoli-Kolour P, Wada N, Tang S-L, Yamashiro H, Reimer JD. Four-Year Field Survey of Black Band Disease and Skeletal Growth Anomalies in Encrusting Montipora spp. Corals around Sesoko Island, Okinawa. Diversity. 2022; 14(1):32. https://doi.org/10.3390/d14010032",10.3390/d14010032,,
Lena,Onset Computer Corporation,HOBO Pro V2,HOBO Pro,"(9.363¬∞N, 82.282¬∞W)",9.363,-82.282,Panama,,,Ecology,Not mentioned,,NA,,Not mentioned,,,,4,10,20,NA,,Not mentioned,,,Not mentioned,,Not mentioned,,Yes,,"Paul Neal et al., 2017",http://dx.doi.org/10.1002/ece3.2706,,
Wally,Onset Computer Corporation,HOBO Pro V2,HOBO Pro,Florida Keys,24.58588,-81.58143,Florida,,,Ecology,60,,NA,,6 years,3 years,2 years,,Not mentioned,,,NA,,0.2,,,Not mentioned,,Not mentioned,,No,,Kemp et al. 2016,http://dx.doi.org/10.1002/ecs2.1373,,
Nicole,Onset Computer Corporation,HOBO Pro V2,HOBO Pro,Florida Keys (24.5‚Äì25.5¬∞N latitude),24.58588,-81.58143,Florida,,,Ecology,15,,NA,,96 days,,,,4,6,,NA,6-Apr,Not mentioned,,,Not mentioned,,Not mentioned,,No,,"Kuffner et al., 2013",http://dx.doi.org/10.1007/s00338-013-1047-8,,
Lena,Onset Computer Corporation,HOBO Pro V2,HOBO Pro,"06¬∞48.15, E158¬∞06.71",6.8025,158.11183,Micronesia,,,Ecology,60,,NA,,59 days,,,,Not mentioned,,,NA,,Not mentioned,,,Not mentioned,,Not mentioned,,No,?,"Rhodes et al., 2014",http://dx.doi.org/10.1007/s00338-014-1172-z,,
Lena,Onset Computer Corporation,HOBO Pro V2,HOBO Pro,West coast of Hawai'i island,19.63999,-155.99693,Hawaii,Hawaii,,Ecology,60,,NA,,11 months,,,,Not mentioned,,,NA,,Not mentioned,,,Not mentioned,,Not mentioned,,No,,"Couch et al., 2014",http://dx.doi.org/10.1007/s00338-014-1174-x,,
Nicole,Onset Computer Corporation,HOBO Pro V2,HOBO Pro,"North Normans Pond, Exuma Cays, Bahamas; Little Grecian Reef, Upper Florida Keys, USA; La Bocana Reef, Puerto Morelos, Mexico; & Carrie Bow Cay, Belize",16.8,-88.0833,Bahamas,New Providence Island,,Ecology,60,,NA,,3 yrs,,,,3,4,,NA,"3 (Bahamas), 4 (Florida Keys, Mexico, Belize) ",Not mentioned,,,Not mentioned,,Not mentioned,,No,,"Kemp et al., 2015",http://dx.doi.org/10.1007/s00338-015-1277-z,,
Nicole,Onset Computer Corporation,HOBO Pro V2,HOBO Pro,"‚ÄâMakaseb,‚ÄâSaada, Delma,‚ÄâBu Tinah, Al-Hiel, Dhabiya, Saadiyat, Ras Ghanada reefs, Abu Dhabi, United Arab Emirates, Arabian/Persian Gulf",24.85892,54.7196,United Arab Emirates,,,Ecology,60,,NA,,~ 4 months (every year for 5 yrs),,,,2.5,5,6,NA,"2.5-6.5 (""20cm of the sea bottom"")",Not mentioned,,,Not mentioned,,Not mentioned,,No,,"Burt et al., 2019",http://dx.doi.org/10.1007/s00338-019-01767-y,,
Nicole,Onset Computer Corporation,HOBO Pro V2,HOBO Pro,"Fsar (22¬∞ 13.957 N 39¬∞ 01.816‚Ä≤ E) & Abu Madafi (22¬∞ 05.209‚Ä≤ N 38¬∞ 46.700‚Ä≤ E), Saudi Arabia, Red Sea",22.08682,38.77833,Saudi Arabia,,,Ecology,60,,NA,,~5 months,,,,30,,,NA,,Not mentioned,,,Not mentioned,,Not mentioned,,No,,"Hume et al., 2020",http://dx.doi.org/10.1007/s00338-020-01917-7,,
Nicole,Onset Computer Corporation,HOBO Pro V2,HOBO Pro,"Southeast Florida Reef Tract, US",25.15523,-80.26615,Florida,,,Ecology,Not mentioned,,NA,,9 years and 4 months,,,,Not mentioned,,,NA,,Not mentioned,,,Not mentioned,,Not mentioned,,No,,"Jones et al., 2020",http://dx.doi.org/10.1007/s00338-020-01994-8,,
Wally,Onset Computer Corporation,HOBO Pro V2,HOBO Pro,"Cygnet bay, Australia",-16.47967,123.0435,Australia,,,Ecology,15,,NA,,19 months,,,,Not mentioned,,,NA,,Not mentioned,,,Not mentioned,,Not mentioned,,No,,Schoepf et al. 2021,http://dx.doi.org/10.1007/s00338-020-02038-x,,
Lena/Erik,Onset Computer Corporation,HOBO Pro V2,HOBO Pro,"North Solitary Island, South Solitary Island, and Fish Rock, NSW, Australia",-30.9384,153.1007,Australia,,,Ecology,30,,NA,,7 December 2018 - 23 July 2020,,,,12,15,,NA,15-Dec,Not mentioned,,,Not mentioned,,Not mentioned,,No,,"Pryor et al., 2022",http://dx.doi.org/10.1016/j.ecss.2021.107662,,
Nicole,Onset Computer Corporation,HOBO Pro V2,HOBO Pro,"Molassess Reef, Florida Keys",25.0083,-80.3692,Florida,,,Ecology,30,,NA,,336 days,268 days,,146 days,4,6,,NA,6-Apr,Not mentioned,,,Not mentioned,,Not mentioned,,No,,"Manzello et al., 2015",http://dx.doi.org/10.1016/j.jembe.2015.06.010,,
Lena,Onset Computer Corporation,HOBO Pro V2,HOBO Pro,(French Polynesia),-17.47825,-149.85275,French Polynesia,Moorea,,Ecology,5,,NA,,39 days ,,,,6,20,40,60,"6, 20, 40, 60, 90",Not mentioned,,,Not mentioned,,Not mentioned,,No,,"Godefroid et al., 2022",http://dx.doi.org/10.1016/j.scitotenv.2022.153094,,
Nicole,Onset Computer Corporation,HOBO Pro V2,HOBO Pro,"United States Virgin Islands e.g., St. Thomas, Tiger Island (Lat:, Long:)",18.19113,-64.95032,Caribbean,,,Ecology,15,60,NA,15-60,1 yr,,,,Not mentioned,,,NA,,0.21,,,Yes,,Not mentioned,,No,,"Smith et al., 2016",http://dx.doi.org/10.1111/gcb.13175,,
Wally,Onset Computer Corporation,HOBO Pro V2,HOBO Pro,Singapore,1.29027,103.85196,Singapore,,,Ecology,Not mentioned,,NA,,2 years,,,,Not mentioned,,,NA,,0.2,,,Not mentioned,,Not mentioned,,No,,Low et al. 2019,http://dx.doi.org/10.1111/jpy.12818,,
Wally,Onset Computer Corporation,HOBO Pro V2,HOBO Pro,Kenya,-4.04374,39.65887,Kenya,,,Ecology,Not mentioned,,NA,,Not mentioned,,,,Not mentioned,,,NA,,Not mentioned,,,Not mentioned,,Not mentioned,,No,,Okemwa et al. 2019,http://dx.doi.org/10.2989/1814232X.2019.1657497,,
Wally,Onset Computer Corporation,HOBO Pro V2,HOBO Pro,"Shiraho Reef, Japan",24.31667,124.2,Japan,,,Ecology,10,20,NA,,9 years,,,,2,,,NA,,0.2,,,Not mentioned,,Not mentioned,,No,,Harii et al. 2014,http://dx.doi.org/10.3354/meps10890,,
Nicole,Onset Computer Corporation,HOBO Pro V2,HOBO Pro,"Southeast Florida (e.g., 27¬∫07.900' N, 80¬∫08.42' W & 25¬∫40.707' N, 80¬∫07.111 W)",27.13167,-80.14033,Florida,,,Ecology,120,,NA,,9.5 yrs,,,,Not mentioned,,,NA,,Not mentioned,,,Not mentioned,,Not mentioned,,Yes,,"Walton et al., 2018",http://dx.doi.org/10.3389/fmars.2018.00323,sensors replaced yearly,
Wally,Onset Computer Corporation,HOBO Pro V2,HOBO Pro,"Isla Contoy, Mexico",21.4954,-86.7944,Mexico,,,Ecology,180,,NA,,8 months,,,,0.5,3,,NA,,Not mentioned,,,Not mentioned,,Not mentioned,,No,,Irora-Sansores et al. 2018,http://dx.doi.org/10.3389/fmars.2018.00487,,
Lena,Onset Computer Corporation,HOBO Pro V2,HOBO Pro,"Taka Fadelan (05¬∞50‚Ä≤ 42.5‚Ä≤‚Ä≤ S, 110¬∞ 35‚Ä≤ 17.7‚Ä≤‚Ä≤ E) and Ocean Base ()",-5.84447,110.58014,Indonesia,,,Ecology,Not mentioned,,NA,,365,,,,5,6,,NA,6-May,Not mentioned,,,Not mentioned,,Not mentioned,,No,,"Wijayanti et al., 2019",http://dx.doi.org/10.3389/fmars.2019.00195,,
Wally,Onset Computer Corporation,HOBO Pro V2,HOBO Pro,"Florida Keys, USA",24.58588,-81.58143,Florida,,,Ecology,15,,NA,,2 years,,,,Not mentioned,,,NA,,0.2,,,Not mentioned,,Not mentioned,,Yes,,Lenz et al. 2021,http://dx.doi.org/10.3389/fmars.2021.615795,,
Lena,Onset Computer Corporation,HOBO Pro V2,HOBO Pro,"Bourake, New Caledonia ",-21.9617,165.9971,New Caledonia,,,Ecology,10,,NA,,September 2017-October 2019,,,,Not mentioned,,,NA,,Not mentioned,,,Not mentioned,,Not mentioned,,Yes,,"Tanvet et al., 2022",http://dx.doi.org/10.3389/fmars.2022.837877,,
Gage,Onset Computer Corporation,HOBO Pro V2,HOBO Pro,"Cerro Mundo, Galapagos ",-0.86833,-89.58444,Ecuador,Isla San Cristobal,,Ecology,15,,NA,,24 weeks,,,,8,10,,NA,10-Aug,Not mentioned,,,Not mentioned,,Not mentioned,,Yes,,Brandt et al. 2022,http://dx.doi.org/10.3389/fmars.2022.845635,,
Wally,Onset Computer Corporation,HOBO Pro V2,HOBO Pro,Hawaii,19.8987,-155.6659,Hawaii,Hawaii,,Ecology,Not mentioned,,NA,,50 days,,,,Not mentioned,,,NA,,Not mentioned,,,Not mentioned,,Not mentioned,,No,,Barnhill et al. 2020,http://dx.doi.org/10.3390/d12090347,,
Wally,Onset Computer Corporation,HOBO Pro V2,HOBO Pro,Hawaii,19.8987,-155.6659,Hawaii,Hawaii,,Ecology,30,,NA,,2 years,,,,Not mentioned,,,NA,,Not mentioned,,,Not mentioned,,Not mentioned,,Yes,,Rogers et al. 2021,http://dx.doi.org/10.3390/d13020066,,
Erik,Onset Computer Corporation,HOBO Pro V2,HOBO Pro,"Manzanillo, Colima, Mexico (coord for 2 sites available)",19.09744,104.3961,Vietnam,,,Ecology,480,,NA,8 h (3x per d),12 months? (winter 2012-winter 2013; study period),,,,,,,NA,,Not mentioned,,,Not mentioned,,Not mentioned,,No,,,http://dx.doi.org/10.4067/S0718-19572017000200009,paper in spanish,
Nicole,Onset Computer Corporation,HOBO Pro V2,HOBO Pro,"Bourak√© (South Province, Grande Terre, New Caledonia)",-21.9617,165.9971,New Caledonia,,,Ecology,10,,NA,,"~ 2 yrs, 3 months",1 month,"~1 yr, 6 months",~ 7 months,1,,,NA,,Not mentioned,,,Not mentioned,,Not mentioned,,Yes,,"Maggioni et al., 2021",http://dx.doi.org/10.5194/bg-18-5117-2021,,
Gage,Onset Computer Corporation,HOBO Pro V2,HOBO Pro,Eastern Gulf of Panama,8.25498,-78.6387,Panama,,,Ecology,30,,NA,,1 yr,,,,15,,,NA,,Not mentioned,,,Not mentioned,,Not mentioned,,No,,Gomez et al 2018,http://dx.doi.org/10.5343/bms.2017.1051,,
Erik,Onset Computer Corporation,HOBO Pro V2,HOBO Pro,"(Pitoujiiao, Taiwan)",25.12611,121.91528,Taiwan,,,Ecology,60,,NA,,22 months (Jan 2014 to Nov 2016),,,,1,,,NA,,Not mentioned,,,Not mentioned,,Not mentioned,,No,,,http://dx.doi.org/10.5343/bms.2020.0058,,
Lena,Onset Computer Corporation,HOBO Pro V2,HOBO Pro,9¬∞20.8‚Ä≤N/82¬∞15.75‚Ä≤W,9.34667,-82.2625,Panama,,,Ecology/Physical Oceanography?,60,,NA,,4567 days,,,,4,10,20,NA,,0.25,,,Yes,,Not mentioned,,Yes,?,"Neal et al., 2013",http://dx.doi.org/10.1007/s00338-013-1081-6,,
Wally,Onset Computer Corporation,HOBO Pro V2,HOBO Pro,Gulf of Panama Gulf of Chiriqui,8.1732,-79.5603,Panama,,,Physical Oceanography,15,,NA,,2 yrs,,,,3,,,NA,,Not mentioned,,,Not mentioned,,Not mentioned,,Yes,,Enochs et al. 2021,http://dx.doi.org/10.1002/ecm.1482,,
Wally,Onset Computer Corporation,HOBO Pro V2,HOBO Pro,"Xcalak, Mexico",18.2714,-87.8358,Mexico,,,Physical Oceanography,5,,NA,,6 days,,,,13.5,23.5,33.5,NA,,Not mentioned,,,Not mentioned,,Not mentioned,,No,,Sanchez-Hernandez et al. 2022,http://dx.doi.org/10.1016/j.ecss.2022.107998,,
Nicole,Onset Computer Corporation,HOBO Pro V2,HOBO Pro,Gulf of Panam√° and Gulf of Chiriqu√≠ ,8.1732,-79.5603,Panama,,,Ecology,15,,NA,,2 years,,,,3,,,NA,,0.2,,,Not mentioned,,Yes,,Yes,,"Randall et al., 2020",http://dx.doi.org/10.1002/ecy.2918,,
Wally,Onset Computer Corporation,HOBO Pro V2,HOBO Pro,"Kane'ohe Bay, Hawaii (, )",20.433,-157.78633,Hawaii,Hawaii,,Ecology,15,,NA,,Not mentioned,,,,2,,,NA,,Not mentioned,,,Not mentioned,,Yes,,No,,Bahr et al. 2017,http://dx.doi.org/10.3389/fmars.2017.00398,,
Wally,Onset Computer Corporation,HOBO Pro V2,HOBO Pro,"Eilat, Isreal",29.5577,34.9519,Israel,,,Ecology,15,,NA,,7 years,,,,5,15,30,45,,Not mentioned,,,,,,,Yes,,Liberman et al. 2022,http://dx.doi.org/10.1002/ecy.3760,,
Jess,Onset Computer Corporation,HOBO Pro V2 U22,HOBO Pro,"23 ¬∞S, 113 ¬∞E; 32 ¬∞S, 115 ¬∞E; 34.4 ¬∞S, 119.4 ¬∞E",-32,115,Australia,,,Biogeochemistry,10,,NA,,547.5-730,,,,2,8,,NA,8-Feb,0.2,,,Yes,(intercalibrated),Not mentioned,,Yes,,"Ross, C.L., DeCarlo, T.M. and McCulloch, M.T. (2019), Calibration of Sr/Ca, Li/Mg and Sr-U Paleothermometry in Branching and Foliose Corals. Paleoceanography and Paleoclimatology, 34: 1271-1291. https://doi.org/10.1029/2018PA003426",10.1029/2018PA003426,,
Jess,Onset Computer Corporation,HOBO Pro V2 U22,HOBO Pro,"17‚ó¶ 29‚Ä≤ 17‚Ä≤‚Ä≤ S, 149‚ó¶ 53‚Ä≤ 3‚Ä≤‚Ä≤ W",-17.48806,-149.88417,French Polynesia,Moorea,,Ecology,60,,NA,,approx. 120,,,,Not mentioned,,,NA,,0.2,,,Not mentioned,,Not mentioned,,No,,"Puisay A, Elleaume N, Fouqueau L, Lacube Y, Goiran C, Sidobre C, Metian M, H√©douin L (2021) Parental bleaching susceptibility leads to differences in larval fluorescence and dispersal potential in Pocillopora acuta corals. Marine Environmental Research 163: 105200",10.1016/j.marenvres.2020.105200,,
Jess,Onset Computer Corporation,HOBO Pro V2 U22,HOBO Pro,"26‚ó¶19‚Äô37.28‚Äô‚Äô N, 127‚ó¶44‚Äô41.21‚Äô‚Äô E",26.32702,127.74478,Japan,Okinawa,,Ecology,60,,NA,,approx. 1825,,,,4,,,NA,,Not mentioned,,,Not mentioned,,Not mentioned,,No,,"Hayashi K, Reimer JD (2020) Five-year study on the bleaching of anemonefish-hosting anemones (Cnidaria: Anthozoa: Actiniaria) in subtropical Okinawajima Island. Regional Studies in Marine Science 35: 101240",10.1016/j.rsma.2020.101240,,
Jess,Onset Computer Corporation,HOBO Pro V2 U22,HOBO Pro,"10.743¬∞N, 124.786¬∞E",10.743,124.786,Philippines,,,Ecology,30,,NA,,approx. 395,,,,4,,,NA,,Not mentioned,,,Not mentioned,,Not mentioned,,No,,"Holtswarth, Jordan N ; San Jose, Shem B ; Montes Jr, Humberto R ; Morley, James W ; Pinsky, Malin L (2017) The reproductive seasonality and fecundity of yellowtail clownfish (Amphiprion clarkii) in the Philippines. Bulletin of Marine Science 93: 997-1007(11)",10.5343/bms.2017.1010,deployment duration = sampling period,
Nicole,Onset Computer Corporation,HOBO Pro V2 U22,HOBO Pro,"Sekisei Lagoon, Japan",24.3366,124.0453,Japan,,,Ecology,5,10,NA,,1 month,2.5 months,,2.5 months,42,45,,NA,42-45,Not mentioned,,,Not mentioned,,Not mentioned,,No,,"Bernardo et al., 2017",http://dx.doi.org/10.1007/s10236-017-1096-6,,
Nicole,Onset Computer Corporation,HOBO Pro V2 U22,HOBO Pro,"Coral Bay (23¬∞09‚Ä≤S), Ningaloo Reef, Houtman Abrolhos Islands (28¬∞52‚Ä≤S) and Houtman Abrolhos Islands (28¬∞52‚Ä≤S), Western Australia",-22.55066,113.80183,Australia,,,Ecology,60,,NA,,~1 yr 11 months,,,,4,,,NA,,Not mentioned,,,Not mentioned,,Not mentioned,,No,,"Foster et al., 2014",http://dx.doi.org/10.1016/j.jembe.2014.07.014,,
Nicole,Onset Computer Corporation,HOBO Pro V2 U22,HOBO Pro,"Hatohobei Island and Helen Reef, Palau",7.515,134.5825,Palau,Babelthuap,,Ecology,30,1,NA,,~ 5 yrs,,,,15,35,57,NA,,Not mentioned,,,Not mentioned,,Not mentioned,,Yes,,"Johnston and Colin, 2022",http://dx.doi.org/10.1029/2021JC017606,,
Lena,Onset Computer Corporation,HOBO Pro V2 U22,HOBO Pro,"21.4339¬∞N, 157.7984¬∞W and 21.4515¬∞N, 157.7966¬∞W",21.4339,-157.7984,Hawaii,Hawaii,Oahu,Ecology,15,,NA,,378 days,300 days,,,2,3,,NA,3-Feb,0.21,,,Yes,,Not mentioned,,Yes,,"Matsuda et al., 2020",http://dx.doi.org/10.3389/fevo.2020.00178,,
Lena,Onset Computer Corporation,HOBO Pro V2 U22,HOBO Pro,"Shell Island (Shenton Bluff, Cygnet Bay, Australia",-16.583,123.083,Australia,,,Ecology,15,,NA,,September 2015-October 2016,,,,3,4,,NA,,0.2,,,Not mentioned,,Not mentioned,,Yes,,"Schoepf et al., 2020",http://dx.doi.org/10.3389/fmars.2020.00702,,
Wally,Onset Computer Corporation,HOBO Pro V2 U22,HOBO Pro,"Ningaloo Reef, Australia ()",-23.15,113.74,Australia,,,Ecology/Physical Oceanography?,Not mentioned,,NA,,15 months,,,,1.5,2.5,5,7,"1.5m, 2.5m, 5m, 7m",0.2,,,Not mentioned,,Not mentioned,,No,,Zhang et al. 2013,http://dx.doi.org/10.1002/jgrc.20338,,
Wally,Onset Computer Corporation,HOBO Pro V2 U22,HOBO Pro,"Scott reef, Australia",-14.0501,121.8001,Australia,,,Physical Oceanography,15,,NA,,Not mentioned,,,,3,9,,NA,,0.1,,,Yes,,Not mentioned,,No,,Green et al. 2019,http://dx.doi.org/10.1007/s00338-019-01771-2,"The accuracy they state is actually ""calibrating all loggers in a room-temperature bath to within 0.1 degree of each other",
Lena,Onset Computer Corporation,HOBO Pro V2 U22,HOBO Pro,"7¬∞37.800'N, 134¬∞40.150'E",7.63,134.66917,Palau,Babelthuap,,Physical Oceanography?,60,1,NA,,Onset: 2010-2014,SeaBird: 2017-2019,,,95,,,NA,,Not mentioned,,,Not mentioned,,Not mentioned,,No,,"Colin et al., 2019",http://dx.doi.org/10.5670/oceanog.2019.422,,
Jess,Onset Computer Corporation,HOBO Pro V2 U22,HOBO Pro,"~116.8¬∞E, 20.7¬∞N",20.7,116.8,China,,,remote data validation,5,15,NA,5 to 15,365 to 730,,,,0.5,1,5,NA,"0.5 (1 logger), 1 (4 loggers), 2,4,5 (1 each)",0.1,,,Yes,,Not mentioned,,No,,"Pan, X., G. T. F. Wong, T. M. DeCarlo, J.-H. Tai, and A. L. Cohen, 2017: Validation of the remotely sensed nighttime sea surface temperature in the shallow waters at the Dongsha Atoll. Terr. Atmos. Ocean. Sci., 28, 517-524, doi: 10.3319/ TAO.2017.03.30.01",10.3319/TAO.2017.03.30.01,,
Nicole,Onset Computer Corporation,HOBO Pro V2 U22-001,HOBO Pro,"Cygnet Bay (, ) on the Dampier Peninsula, Australia",-23.23333,113.91667,Australia,,,Ecology,Not mentioned,,NA,,6 months,,,,Not mentioned,,,NA,,0.2,,,Not mentioned,,Not mentioned,,No,,"Dandan et al., 2015",http://dx.doi.org/10.1007/s00338-015-1335-6,,
Wally,Onset Computer Corporation,HOBO Pro V2 U22-001,HOBO Pro,Panama,8.538,-80.7821,Panama,,,Ecology,30,,NA,,Not mentioned,,,,Not mentioned,,,NA,,Not mentioned,,,Not mentioned,,Not mentioned,,No,,Gomez et al. 2018,http://dx.doi.org/10.1007/s00338-017-1637-y,,
Nicole,Onset Computer Corporation,HOBO Pro V2 U22-001,HOBO Pro,"Wenchang, Hainan Island, China",19.5433,110.7977,China,,,Ecology,15,,NA,,11 months,,,,Not mentioned,,,NA,"""20¬†cm above the substrate""",0.2,,,Not mentioned,,Not mentioned,,No,,"Li et al., 2015",http://dx.doi.org/10.1016/j.ecss.2014.09.021,,
Wally,Onset Computer Corporation,HOBO Pro V2 U22-001,HOBO Pro,"Cygnet Bay, Australia (, )",-16.47939,123.68833,Australia,,,Ecology,Not mentioned,,NA,,1 year,,,,Not mentioned,,,NA,,0.2,,,Not mentioned,,Not mentioned,,No,,Schoepf et al. 2020,http://dx.doi.org/10.3389/fmars.2020.00245,,
Wally,Onset Computer Corporation,HOBO Pro V2 U22-001,HOBO Pro,"Tobago (11¬∫11', -60¬∫49')",11.18333,-60.81667,Tobago,,,Physical Oceanography,15,,NA,,1 year,,,,5,,,NA,,0.21,,,Yes,,Not mentioned,,No,,Mohammed et al. 2015,http://dx.doi.org/10.3390/rs8010012,,
Wally,Onset Computer Corporation,HOBO Pro V2 U22-001,HOBO Pro,"Coral Bay, Australia",-23.13,113.76,Australia,,,Physical Oceanography,5,,NA,,1 year,,,,Not mentioned,,,NA,see notes,0.2,,,Not mentioned,,Not mentioned,,No,,Falter et al. 2014,http://dx.doi.org/10.4319/lo.2014.59.4.1241,Loggers deployed 0-2m off the bottom but they state that depths in the study area range from 0.5-4m deep.,
Nicole,Onset Computer Corporation,HOBO Pro V2 U22-001 ,HOBO Pro,Bermuda,32.457,-64.835,Bermuda,,,Biogeochemistry,Not mentioned,,NA,,1 week,,,,1.5,Not mentioned,Not mentioned ,NA,,Not mentioned,,,Not mentioned,,Not mentioned,,No,,"Sims et al., 2020",http://dx.doi.org/10.1007/s00338-019-01879-5,3 depths (only mentioned 1 depth in m),
Jess,Onset Computer Corporation,HOBO Pro V2 U22-001 ,HOBO Pro,"1!13""40.04"""" N, 103!51""6.26"""" E",1.22779,103.85174,Singapore,,,Ecology,Not mentioned,,NA,,37,,,,0,1,,NA,"0.2, 0.4, 0.6, 0.8. 1.0m above lowest astronomical tide ",Not mentioned,,,Not mentioned,,Not mentioned,,No,,"Pang HE, Poquita-Du RC, Jain SS, Huang D, Todd PA (2021) Among-genotype responses of the coral Pocillopora acuta to emersion: implications for the ecological engineering of artificial coastal defences. Marine Environmental Research 168: 105312",10.1016/j.marenvres.2021.105312,,
Jess,Onset Computer Corporation,HOBO Pro V2 U22-001 ,HOBO Pro,"13.97519¬∞N, 120.61564¬∞E",13.97519,120.61564,Philippines,,,Ecology,15,30,NA,15-30,approx. 180,,,,5.5,,,NA,,Not mentioned,,,Not mentioned,,Not mentioned,,No,,"Feliciano GNR, Gagalac LMF, Nava AMCG, Licuanan WY (2018) Size structure and possible bleaching susceptibility of mushroom corals in the Philippines following a bleaching event. Regional Studies in Marine Science 24: 288-295",10.1016/j.rsma.2018.09.003,,
Wally,Onset Computer Corporation,HOBO Pro V2 U22-001 ,HOBO Pro,"Moorea, French Polynesia and St. John, USVI",-17.5,-149.83333,French Polynesia,Moorea,,Ecology,0.25,2,NA,,14 yrs,,,,10,20,,NA,,0.002,,,Not mentioned,,Not mentioned,,Yes,,Edmunds 2021,http://dx.doi.org/10.1002/lno.11693,,
Nicole,Onset Computer Corporation,HOBO Pro V2 U22-001 ,HOBO Pro,"Galveston, Texas (, ) & (27¬∫52.4 N, 93¬∫48.8 W)",27.90833,-93.6,Texas,,,Ecology,60,,NA,,1 yr,,,,22,28,30,40,,Not mentioned,,,Not mentioned,,Not mentioned,,No,,"Johnston et al., 2019",http://dx.doi.org/10.1007/s00338-019-01788-7,,
Wally,Onset Computer Corporation,HOBO Pro V2 U22-001 ,HOBO Pro,"Nui Chua National Park, Vietnam ()",11.72333,109.23111,Vietnam,,,Ecology,360,,NA,,3 years,,,,Not mentioned,,,NA,,Not mentioned,,,Not mentioned,,Not mentioned,,No,,Tkachenko et al. 2023,http://dx.doi.org/10.1007/s10452-022-09994-2,,
Lena,Onset Computer Corporation,HOBO Pro V2 U22-001 ,HOBO Pro,"Sesoko Island, Okinawa, Japan ",26.64127,127.86427,Japan,,,Ecology,Not mentioned,,NA,,47 days,,,,Not mentioned,,,NA,45cm from corals,Not mentioned,,,Not mentioned,,Not mentioned,,No,,"Nishiguchi et al., 2018",http://dx.doi.org/10.1016/j.marpolbul.2018.04.020,,
Nicole,Onset Computer Corporation,HOBO Pro V2 U22-001 ,HOBO Pro,"Abu Shosha, Saudi Arabia, Red Sea ",22.30453,39.04936,Saudi Arabia,,,Ecology,30,,NA,,1 yr,,,,Not mentioned,,,NA,,0.21,,,Not mentioned,,Not mentioned,,Yes,,"Roth et al., 2020",http://dx.doi.org/10.1111/1365-2435.13625,,
Nicole,Onset Computer Corporation,HOBO Pro V2 U22-001 ,HOBO Pro,"Thai‚ÄìMalay Peninsula (), Southeast Asia ",1,98,Thailand,,,Ecology,60,,NA,,5 months,20 months ,,,Not mentioned,,,NA,,Not mentioned,,,Yes,,Not mentioned,,No,,"Tanzil et al., 2013",http://dx.doi.org/10.1111/gcb.12279,,
Jess,Onset Computer Corporation,HOBO Pro V2 U22-001 ,HOBO Pro,4 stations on either side of Palau,7.51498,134.58252,Palau,Babelthuap,,Physical Oceanography,30,,NA,,"approx. 90-912,dependent on site/depth, (http://wtc.coralreefpalau.org/) lists site, depth, deployment dates for each model of logger",,,,2,90,,NA,Feb-90,0.1,,,Yes,,Not mentioned,,Yes,,"Sch√∂nau, M.C., H.W. Wijesekera, W.J. Teague, P.L. Colin, G. Gopalakrishnan, D.L. Rudnick, B.D. Cornuelle, Z.R. Hallock, and D.W. Wang. 2019. The end of an El Ni√±o: A view from Palau. Oceanography 32(4):32‚Äì45, https://doi.org/10.5670/ oceanog.2019.409.",10.5670/oceanog.2019.409,,
Wally,Onset Computer Corporation,HOBO Pro V2 U22-001 ,HOBO Pro,Mexico,23.6345,-102.5528,Mexico,,,Physical Oceanography,10,,NA,,18 months,,,,5,27,,NA,,0.02,0.1,,Not mentioned,,Not mentioned,,No,,Matteo-Jassos et al. 2012,http://dx.doi.org/10.1016/j.csr.2012.10.001,Several depths from a range of 5-27m,
Lena,Onset Computer Corporation,HOBO Pro V2 U22-001 ,HOBO Pro,"(Mombasa; Watamu: 3.38¬∞ S, 39.99¬∞ E)",-3.99,39.75,Kenya,,,Ecology,180,,NA,,17 years,,,,1,,,NA,,0.35,,,Not mentioned,,Yes,,No,,McClanahan 2017,http://dx.doi.org/10.3354/meps12150, accuracy at 25¬∞C,
Wally,Onset Computer Corporation,HOBO Pro V2 U22-001 ,HOBO Pro,"Farasan Banks, Saudi Arabia",16.7035,41.98333,Saudi Arabia,Jazair Farasan,South,Physical Oceanography,15,60,NA,,1 yr ,2 yr,,,1,11,28,NA,,0.21,0.21,,Yes,,Yes,,Yes,,DeCarlo et al. 2021,http://dx.doi.org/10.1029/2020JC016493,Range of depths and durations but these were listed specifically ,
Jess,Onset Computer Corporation,HOBO StowAway Tidbit,HOBO Stowaway Tidbit,"Bocas del Toro, Panama",9.3408,-82.2408,Panama,,,Ecology,15,,NA,,225,,,,0.5,,,NA,,0.25,,,Not mentioned,,Not mentioned,,No,,"Collin R, Rendina F, Goodwin V, McCabe S (2018) Do tropical specialist sea urchins have higher thermal tolerances and optimal temperatures than their more widely distributed relatives?. Mar Ecol Prog Ser 589:153-166. https://doi.org/10.3354/meps12487",10.3354/meps12487,"only included info pertaining to temp loggers placed over coral reef, other (excluded) sensors were placed over seagrass and coral rubble",
Lena,Onset Computer Corporation,HOBO StowAway Tidbit,HOBO Stowaway Tidbit,"(9.363¬∞N, 82.282¬∞W)",9.363,-82.282,Panama,,,Ecology,Not mentioned,,NA,,Not mentioned,,,,4,10,20,NA,,Not mentioned,,,Not mentioned,,Not mentioned,,Yes,,"Paul Neal et al., 2017",http://dx.doi.org/10.1002/ece3.2706,,
Lena,Onset Computer Corporation,HOBO StowAway Tidbit,HOBO Stowaway Tidbit,"Chumbe reef, Zanzibar",-6.2833,39.1667,Zanzibar,,,Ecology,Not mentioned,,NA,,daily,,,,3,,,NA,,Not mentioned,,,Not mentioned,,Not mentioned,,No,,"Stuhr et al., 2018",http://dx.doi.org/10.1007/s00338-018-1707-9,Mostly about forams but it seems like the monitored site was a coral reef ?,
Erik,Onset Computer Corporation,HOBO StowAway Tidbit,HOBO Stowaway Tidbit,Western Australia (6 locations some coral dominated),-31.9523,115.8613,Australia,,,Ecology,60,,NA,,1 month in each Winter (August) and Spring (November) 2009 (?),,,,2,5,,NA,2-5m (?),0.1,,,Not mentioned,,Not mentioned,,No,,,https://doi.org/10.1016/j.jembe.2013.12.015,,
Erik,Onset Computer Corporation,HOBO StowAway Tidbit,HOBO Stowaway Tidbit,several locations across temperate and tropical Western Australia,-31.9523,115.8613,Australia,,,Ecology,60,,NA,(mostly some where converted),,,,,5,55,,NA,5-55m (?) different sites with different depths,0.1,,,Yes,"regularly calibrations for some loggers, no specifics",Not mentioned,,No,,,https://doi.org/10.1016/j.jmarsys.2012.10.009,loggers operated by several institutes/agencies,
Lena,Onset Computer Corporation,HOBO StowAway Tidbit,HOBO Stowaway Tidbit,9¬∞20.8‚Ä≤N/82¬∞15.75‚Ä≤W,9.34667,-82.2625,Panama,,,Ecology/Physical Oceanography?,60,,NA,,4567 days,,,,4,10,20,NA,,0.25,,,Yes,,Not mentioned,,Yes,?,"Neal et al., 2013",http://dx.doi.org/10.1007/s00338-013-1081-6,,
Jess,Onset Computer Corporation,HOBO StowAway Tidbit,HOBO Stowaway Tidbit,21.5S 114.0E; 31.5S 115.0E,-21.5,114,Australia,,,Management/Data validation,10,,NA,,approx. 456,,,,Not mentioned,,,NA,,0.17,,,Yes,,Not mentioned,,No,available via cited sources,"Baldock J, Bancroft KP, Williams M, Shedrawi G, Field S (2014) Accurately estimating local water temperature from remotely sensed satellite sea surface temperature: A near real-time monitoring tool for marine protected areas. Ocean & Coastal Management 96: 73-81",10.1016/j.ocecoaman.2014.05.007,,
Gage,Onset Computer Corporation,HOBO StowAway Tidbit TBI32-O5+37,HOBO Stowaway Tidbit,"Au'au Channel, Hawaii",20.81972,-156.68194,Hawaii,Hawaii,,Ecology,30,,NA,,4 yrs,,,,70,140,,NA,"70, 88, 102, 116, 134; 90, 100, 110, 130, 140, 148",Not mentioned,,,Not mentioned,,Not mentioned,,No,,Kahng et al. 2020,http://dx.doi.org/10.1007/s00338-020-01960-4,"two deployments were conducted over the 4 year period, each with different depths",
Nicole,Onset Computer Corporation,HOBO StowAway Tidbit TM,HOBO Stowaway Tidbit,"Southeast Florida (e.g., 27¬∫07.900' N, 80¬∫08.42' W & 25¬∫40.707' N, 80¬∫07.111 W)",27.13167,-80.14033,Florida,,,Ecology,120,,NA,,9.5 yrs,,,,Not mentioned,,,NA,,Not mentioned,,,Not mentioned,,Not mentioned,,Yes,,"Walton et al., 2018",http://dx.doi.org/10.3389/fmars.2018.00323,sensors replaced yearly,
Jess,Onset Computer Corporation,HOBO Temp,Not mentioned,"7 sites, southern Kenya",-4.04374,39.65887,Kenya,,,Management,60,180,NA,60-180,since 1996; deployment length not explicity stated,,,,1,4,,NA,4-Jan,Not mentioned,,,Not mentioned,,Not mentioned,,No,,"McClanahan TR, Abunge CA (2014) Catch rates and income are associated with fisheries management restrictions and not an environmental disturbance, in a heavily exploited tropical fishery. Mar Ecol Prog Ser 513:201-210. https://doi.org/10.3354/meps10925",10.3354/meps10925,,
Lena,Onset Computer Corporation,HOBO Temp,Not mentioned,Southern Kenya,-4.04374,39.65887,Kenya,,,Ecology,60,180,NA,,7,,,,2,,,NA, < m at low tide,Not mentioned,,,Not mentioned,,Yes,,No,,"McClanahan, 2020",http://dx.doi.org/10.1016/bs.amb.2020.08.003,,
Jess,Onset Computer Corporation,HOBO Temp II,Not mentioned,"Ras Ghanada, Abu Dhabi, UAE",24.8482,54.6903,United Arab Emirates,,,Ecology,Not mentioned,,NA,,1460,,,,6,,,NA,,Not mentioned,,,Not mentioned,,Not mentioned,,No,,"Riegl B, Cavalcante G, Bauman AG, Feary DA, Steiner S and Purkis S (2017) Demographic Mechanisms of Reef Coral Species Winnowing from Communities under Increased Environmental Stress. Front. Mar. Sci. 4:344. doi: 10.3389/fmars.2017.00344",10.3389/fmars.2017.00344,,
Lena,Onset Computer Corporation,HOBO Temp II,Not mentioned,"Wolf (Wenman) and Darwin (Culpepper) islands, Galapagos archipelago",-0.77726,-91.14258,Ecuador,Isla Isabela,,Physical Oceanography,30,60,NA,,Not mentioned,,,,10,15,20,12,,Not mentioned,,,Not mentioned,,Not mentioned,,No,,"Riegl et al., 2019",http://dx.doi.org/10.1007/s00338-019-01787-8,,
Nicole,Onset Computer Corporation,HOBO Temp/Light,Not mentioned,"Abu Shosha reef, Saudi Arabia",22.30453,39.04936,Saudi Arabia,,,Ecology,30,,NA,,1 yr,,,,Not mentioned,,,NA,"(""at the seafloor"")",0.2,,,Not mentioned,,Not mentioned,,No,,"Roth et al., 2021",http://dx.doi.org/10.1002/ecy.3226,,
Nicole,Onset Computer Corporation,HOBO Temp/Light 8k UA-002‚Äì08,HOBO Pendant Temp/Light,"Malilnep (16.43955¬∞N, 119.94292¬∞E) and Caniogan () in Bolinao-Anda Reef Complex (BARC), Pangasinan, northwestern Philippines",16.29255,120.01353,Philippines,,,Ecology,Not mentioned,,NA,,~11 months,,,,Not mentioned,,,NA,,Not mentioned,,,Not mentioned,,Not mentioned,,No,,"Baran & Baria-Rodriguez, 2021",http://dx.doi.org/10.1111/ivb.12316,,
Jess,Onset Computer Corporation,HOBO TidbiT,HOBO TidbiT,"27¬∞ 6.6‚Äô S, 109¬∞25.5‚ÄôW",-27.11,-109.425,Chile,Easter Island,,Ecology,10,,NA,,approx. 510,,,,12,,,NA,,Not mentioned,,,Not mentioned,,Not mentioned,,No,,"Buck-Wiese H, Burgu√©s I, Medrano A, Navarrete-Fernandez T, Garcia M, Wieters EA (2018) Patterns in sexual reproduction of the dominant scleractinian corals at Rapa Nui (Easter Island): Pocillopora verrucosa and Porites lobata . Aquat Biol 27:1-11. https://doi.org/10.3354/ab00691",10.3354/ab00691,,
Wally,Onset Computer Corporation,HOBO TidbiT,HOBO TidbiT,"Dhabiya, UAE",24.45831,54.33676,United Arab Emirates,,,Ecology,Not mentioned,,NA,,Not mentioned,,,,8,,,NA,,Not mentioned,,,Not mentioned,,Not mentioned,,No,,Vaughan et al. 2021,http://dx.doi.org/10.1007/s00338-020-02041-2,,
Lena,Onset Computer Corporation,HOBO TidbiT,HOBO TidbiT,"Surin, Tachai, Bon, Similan, Miang, Payang and Racha Islands, Thailand",8.6515,97.6378,Thailand,,,Ecology,3,20,NA,,1 year,5 months,,,15,20,10,NA,,0.2,,,Not mentioned,,Not mentioned,,Yes,,"Wall et al., 2018 ",http://dx.doi.org/10.1098/rspb.2014.0650,,
Wally,Onset Computer Corporation,HOBO TidbiT,HOBO TidbiT,"Dhabiya Reef, UAE",24.45831,54.33676,United Arab Emirates,,,Ecology,Not mentioned,,NA,,5 months,,,,Not mentioned,,,NA,,0.2,,,Not mentioned,,Not mentioned,,No,,Verneil et al. 2021,http://dx.doi.org/10.3389/fmars.2021.781428,,
Jess,Onset Computer Corporation,HOBO TidbiT,HOBO TidbiT,"97.6353‚ó¶ E, 8.5621‚ó¶ N, 97.8071‚ó¶ E, 9.0674‚ó¶ N, 97.8409‚ó¶ E, 9.4125‚ó¶ N",8.5621,97.6353,Thailand,,,Physical Oceanography,20,,NA,,approx. 1825,,,,20,,,NA,,0.02,,,Not mentioned,,Not mentioned,,Yes,,"Liu Y, Putchim L, Li K, Gao H, Sun L, Khokiattiwong S, Yu W (2022) Late monsoon threatens coral refugia in the Andaman Sea. Environmental Research Letters 17: 034038",10.1088/1748-9326/ac4a30,,
Wally,Onset Computer Corporation,HOBO TidbiT,HOBO TidbiT,"St. John's, USVI (18.307¬∫, -64.722¬∫)",18.307,-64.722,Caribbean,,,Physical Oceanography,Not mentioned,,NA,,22 yrs,,,,9,14,,NA,,0.3,0.2,,Not mentioned,,Not mentioned,,No,,Edmunds and Gray 2014,http://dx.doi.org/10.1007/s10750-014-1876-7,,
Wally,Onset Computer Corporation,HOBO TidbiT,HOBO TidbiT,Guam,13.4443,144.7937,Guam,,,Physical Oceanography,1,5,10,,7 months ,,,,1,25,,NA,,Not mentioned,,,Yes,,Not mentioned,,No,,Comfort et al. 2019,http://dx.doi.org/10.1016/j.rsma.2019.100740,"Range of depths from 1 to 25 (also 6, 10, 15)",
Wally,Onset Computer Corporation,HOBO TidbiT,HOBO TidbiT,Hawaii,19.8987,-155.6659,Hawaii,Hawaii,,Physical Oceanography,15,,NA,,Not mentioned,,,,Not mentioned,,,NA,,Not mentioned,,,Not mentioned,,Not mentioned,,Yes,,Silbiger et al. 2020,http://dx.doi.org/10.1098/rspb.2020.2743,,
Lena,Onset Computer Corporation,HOBO TidbiT,HOBO TidbiT,Guam's northwestern coast (4 reef flats),13.4443,144.7937,Guam,,,Ecology,60,,NA,,Not mentioned,,,,Not mentioned,,,NA,,Not mentioned,,,Yes,,Yes,,No,,"Raymundo et al., 2017",http://dx.doi.org/10.3354/meps12005,,
Wally,Onset Computer Corporation,HOBO TidbiT,HOBO TidbiT,"Farasan Banks, Saudi Arabia",16.7035,41.98333,Saudi Arabia,Jazair Farasan,South,Physical Oceanography,15,60,NA,,1 yr ,2 yr,,,1,11,28,NA,,0.21,0.21,,Yes,,Yes,,Yes,,DeCarlo et al. 2021,http://dx.doi.org/10.1029/2020JC016493,Range of depths and durations but these were listed specifically ,
Jess,Onset Computer Corporation,HOBO TidbiT v2,HOBO TidbiT,"Willemstad, Cura√ßao",12.1084,-68.9335,Curacao,,,Biogeochemistry,1440,,NA,(daily),547.5 (mar 1999 - sept 2000),,,,5,,,NA,,Not mentioned,,,Not mentioned,,Not mentioned,,No,,"Alpert, A. E., Cohen, A. L., Oppo, D. W., DeCarlo, T. M., Gaetani, G. A., Hernandez-Delgado, E. A., Winter, A., and Gonneea, M. E. (2017), Twentieth century warming of the tropical Atlantic captured by Sr-U paleothermometry, Paleoceanography, 32, 146‚Äì 160, doi:10.1002/2016PA002976.",10.1002/2016PA002977,used to validate sat data and calibrate coral skeleton data,
Jess,Onset Computer Corporation,HOBO TidbiT v2,HOBO TidbiT,west and east of the central Similan Island,8.6515,97.6378,Thailand,,,Ecology,3,,NA,,180,515,,,15,,,NA,,0.2,,,Yes,,Not mentioned,,No,,"Schmidt, G.M., Wall, M., Taylor, M. et al. Large-amplitude internal waves sustain coral health during thermal stress. Coral Reefs 35, 869‚Äì881 (2016). https://doi.org/10.1007/s00338-016-1450-z",10.1007/s00338-016-1450-z,,
Jess,Onset Computer Corporation,HOBO TidbiT v2,HOBO TidbiT,"32.804 N, 129.731 E; 32.187‚ÄÄN, 129.968‚ÄÄE",32.804,129.731,Japan,,,Ecology,30,30,NA,,approx. 4685,approx. 2190,,,9,5,,NA,,Not mentioned,not mentioned,,Not mentioned,,Not mentioned,,No,,"Suzuki G, Kadota T, Yatsuya K, et al. (2021) Occasional loss of fecundity in peripheral coral populations. Ecological Research 36:119‚Äì128. https://doi.org/10.1111/1440-1703. 12177",10.1111/1440-1703.12177,,
Jess,Onset Computer Corporation,HOBO TidbiT v2,HOBO TidbiT,"32.804 N, 129.731 E; 32.187‚ÄÄN, 129.968‚ÄÄE",32.804,129.731,Japan,,,Ecology,30,30,NA,,approx. 4685,approx. 2190,,,9,5,,NA,,Not mentioned,not mentioned,,Not mentioned,,Not mentioned,,No,,"Suzuki G, Kadota T, Yatsuya K, et al. (2021) Occasional loss of fecundity in peripheral coral populations. Ecological Research 36:119‚Äì128. https://doi.org/10.1111/1440-1703. 12177",10.1111/1440-1703.12177,,
Wally,Onset Computer Corporation,HOBO TidbiT v2,HOBO TidbiT,"Al Fahal reef, Saudi Arabia ",22.24972,38.9625,Saudi Arabia,,,Ecology,60,,NA,,1 year,,,,8,8,,NA,,Not mentioned,0.2,,Not mentioned,,Not mentioned,,No,,Roik et al. 2016,http://dx.doi.org/10.1007/s00338-015-1383-y,,
Lena,Onset Computer Corporation,HOBO TidbiT v2,HOBO TidbiT,"24.5986¬∞ N, 54.4201¬∞ E; 24.5990¬∞ N, 54.4215¬∞ E and 25.2566¬∞ N, 54.2095¬∞ E; 25.2400¬∞ N, 54.1943¬∞ E",24.599,54.4215,United Arab Emirates,,,Ecology,30,60,NA,30-60,3 years,,,,6,7,,NA,7-Jun,Not mentioned,,,Not mentioned,,Not mentioned,,Yes,,"Howells et al., 2020",http://dx.doi.org/10.1007/s00338-020-01946-2,,
Nicole,Onset Computer Corporation,HOBO TidbiT v2,HOBO TidbiT,"Dubai, Persian Gulf, UAE",25.2048,55.2708,United Arab Emirates,,,Ecology,60,,NA,,2 yrs,,,,5,,,NA,,0.2,,,Yes,,Not mentioned,,No,,"Bauman et al., 2014",http://dx.doi.org/10.3354/meps10662,,
Lena,Onset Computer Corporation,HOBO TidbiT v2,HOBO TidbiT,"Delma (D: 24.5208¬∞N, 52.2781¬∞E), Saadiyat (S: 24.5986¬∞N, 54.4201¬∞E), Ras Ghanada (R: ), and Al Aqah (A: 25.4929¬∞N, 56.3635¬∞E)",24.8482,54.6903,United Arab Emirates,,,Ecology,60,,NA,,365,,,,Not mentioned,,,NA,,Not mentioned,,,Not mentioned,,Not mentioned,,Yes,,"Howells et al., 2018",http://dx.doi.org/10.3389/fmars.2018.00056,,
Wally,Onset Computer Corporation,HOBO TidbiT v2,HOBO TidbiT,"Tayrona National Natural Park, Colombia",11.2882,-74.1517,Colombia,,,Physical Oceanography/Biogeochemistry,5,,NA,,2.5 years,,,,10,,,NA,,Not mentioned,,,Not mentioned,,Not mentioned,,No,,Bayraktarov et al. 2014,http://dx.doi.org/10.1007/s10661-014-3647-3,,
Nicole,Onset Computer Corporation,HOBO TidbiT v2,HOBO TidbiT,"Black Point and Wailupe, Maunalua Bay, Hawai ªi",21.2814,-157.7131,Hawaii,Hawaii,Oahu,Biogeochemistry,15,,NA,,10 months,,,,Not mentioned,,,NA,,0.2,,,Yes,,Yes,"Yes (""coated in Plasti-Dip Multipurpose Rubber Coating"")",No,,"Lubarsky et al., 2018",http://dx.doi.org/10.1002/lno.10799,,
Jess,Onset Computer Corporation,HOBO TidbiT v2 UTBI-001,HOBO TidbiT,"Saadiyat, Ras Ghanada, and Dhabiya reefs, Abu Dhabi",24.8482,54.6903,United Arab Emirates,,,Ecology,60,,NA,,approx. 1970,,,,3,,,NA,,Not mentioned,,,Not mentioned,,Not mentioned,,No,,"Paparella F, Xu C, Vaughan GO and Burt JA (2019) Coral Bleaching in the Persian/Arabian Gulf Is Modulated by Summer Winds. Front. Mar. Sci. 6:205. doi: 10.3389/fmars.2019.00205",10.3389/fmars.2019.00205,,
Wally,Onset Computer Corporation,HOBO TidbiT v2 UTBI-001,HOBO TidbiT,"Pulao Hantu, Singapore ()",1.225,103.7525,Singapore,,,Ecology,5,,NA,,2d,,,,1,4,10,NA,,Not mentioned,,,Not mentioned,,Not mentioned,,Yes,,Chow et al. 2019,http://dx.doi.org/10.1016/j.marenvres.2019.04.010,,
Wally,Onset Computer Corporation,HOBO U20 temp-pressure sensor,Water level data logger,Mexico,23.6345,-102.5528,Mexico,,,Physical Oceanography,10,,NA,,18 months,,,,5,27,,NA,,0.02,0.1,,Not mentioned,,Not mentioned,,No,,Matteo-Jassos et al. 2012,http://dx.doi.org/10.1016/j.csr.2012.10.001,Several depths from a range of 5-27m,
Jess,Onset Computer Corporation,HOBO U21,Not mentioned,"7.42¬∞ S, 72.45¬∞ E",-7.42,72.45,Chagos Archipelago,Diego Garcia,,Ecology,120,,NA,,1830,,,,15,,,NA,,0.2,,,Not mentioned,,Not mentioned,"not mentioned, but ""protected against fish bites by short lengths of pipe""",Yes,,"Hays Graeme C., Chivers William J., Lalo√´ Jacques-Olivier, Sheppard Charles, Esteban Nicole (2021) Impact of marine heatwaves for sea turtle nest temperatures. Biol. Lett.172021003820210038",10.1098/rsbl.2021.0038,true deployment periods/lengths are not mentioned for water temp loggers; data collected and presented across 61 months,
Gage,Onset Computer Corporation,HOBO UA-002,HOBO Pendant Temp/Light,"Rancho Norte, Brazil ( 48¬∞22‚Ä≤W)",-27.28333,-48.36667,Brazil,,,Biogeochemistry,20,,NA,,2 yrs,,,,10,,,NA,,Not mentioned,,,Not mentioned,,Not mentioned,,No,,Carvalho et al. 2020,http://dx.doi.org/10.1017/S0025315420000284,,
Lena/Erik,Onset Computer Corporation,HOBO UA-002-08,HOBO Pendant Temp/Light,"Heliofungia, Mekeald, Ngeruktabel, Uet era Ngchas, Palau",7.515,134.5825,Palau,Babelthuap,,Biogeochemistry,Not mentioned,,NA,,Not mentioned,,,,Not mentioned,,,NA,,Not mentioned,,,Not mentioned,,Not mentioned,,No,,"Wilson et al., 2017",http://dx.doi.org/10.3389/fmars.2017.00012,"Unsure if this should be included, it seems like their loggers were in situ but I'm not 100%","yes, loggers in situ for duration of incubations, not long-term monitoring"
Wally,Onset Computer Corporation,HOBO UA-002-65,HOBO Pendant Temp/Light,"Zihuatanejo, Mexico",17.64167,-101.5517,Mexico,,,Ecology,5,,NA,,6 years,,,,5,,,NA,,Not mentioned,,,Not mentioned,,Not mentioned,,Yes,,Nava et al. 2021,http://dx.doi.org/10.1111/maec.12630,,
Jess,Onset Computer Corporation,HOBO UA-004-64 v1.08,HOBO Pendant,"24¬∞ 06‚Äô S, 152¬∞ 42‚Äô E",-24.1,152.7,Australia,,,Ecology,15,,NA,,approx. 730,,,,14,,,NA,,Not mentioned,,,Not mentioned,,Not mentioned,,No,,"Couturier LIE, Newman P, Jaine FRA, Bennett MB and others (2018) Variation in occupancy and habitat use of Mobula alfredi at a major aggregation site. Mar Ecol Prog Ser 599:125-145. https://doi.org/10.3354/meps12610",10.3354/meps12610,,
Wally,Onset Computer Corporation,Hobo XT,Not mentioned,"Nanwan Bay, Tawain ()",21.94139,120.75278,Taiwan,,,Ecology,60,,NA,,5 yrs,,,,5,,,NA,,0.2,,,Not mentioned,,Not mentioned,,No,,Fan et al. 2017,http://dx.doi.org/10.3354/meps12071,,
Nicole,Onset Computer Corporation,Not mentioned,Not mentioned,"Cement Wreck, Shib Nazar, Saudi Arabia, Red Sea",22.2757,39.1133,Saudi Arabia,,,Ecology,10,,NA,,~ 7 months,,,,0.5,1.5,,NA,0.5‚Äì1.5,Not mentioned,,,Not mentioned,,Not mentioned,,No,,"Rich et al., 2022",http://dx.doi.org/10.1002/ece3.9450,Temp loggers,
Wally,Onset Computer Corporation,Not mentioned,Not mentioned,"Florida Keys (,)",24.59723,-81.45505,Florida,,,Ecology,Not mentioned,,NA,,7 months,,,,Not mentioned,,,NA,,Not mentioned,,,Not mentioned,,Not mentioned,,No,,Towle et al. 2015,http://dx.doi.org/10.1016/j.rsma.2015.09.007,,
Nicole,Onset Computer Corporation,Not mentioned,Not mentioned,"Farol beach, Arraial do Cabo, Brazil (22¬∞57¬¥57ÀùS, 42¬∞1¬¥40ÀùW)",-22.96583,-42.02778,Brazil,,,Ecology,60,,NA,,~9 weeks,~8 weeks,,,4,,,NA,,Not mentioned,,,Not mentioned,,Not mentioned,,No,,"Lima et al., 2016",http://dx.doi.org/10.5343/bms.2015.1029,,
Erik,Onset Computer Corporation,Not mentioned,Not mentioned,"Ofu Island, American Samoa",-14.17808,-169.66011,Samoa,,,Ecology,Not mentioned,,NA,,not mentioned (1 yr study),,,,Not mentioned,,,NA,,Not mentioned,,,Not mentioned,,Not mentioned,,No,,,https://doi.org/10.1002/ece3.2685,,
Wally,Onset Computer Corporation,Not mentioned,Not mentioned,Florida Keys ,24.58588,-81.58143,Florida,,,Physical Oceanography,10,2,NA,,4,6,,,10,20,30,NA,,0.2,0.001,,Not mentioned,,Not mentioned,,No,,Leichter et al. 2014,http://dx.doi.org/10.1002/2013JC009371,"For the hobos, they sample at 0.5 second intervals but recorded 10-min averages",
Nicole,Onset Computer Corporation,Not mentioned ,Not mentioned ,"Sultan Shoal () and Kusu (1¬∞13‚Ä≤31.37‚Ä≥N, 103¬∞51‚Ä≤38.31‚Ä≥E), Singapore",1.23968,103.64975,Singapore,,,Ecology,60,,NA,,24h (across 4 different months),,,,3,,,NA,,Not mentioned,,,Not mentioned,,Not mentioned,,No,,"Taira et al., 2017",http://dx.doi.org/10.1080/10236244.2017.1420421,"(""temperature loggers"")",
Nicole,Onset Computer Corporation,Optic Stowaway,Optic Stowaway,"Yawzi Point, St. John, US Virgin Islands",18.3152,-64.7257,Caribbean,,,Ecology,15,30,NA,,1 yr & 1 yr 9 months (Ryan Industries thermistor),5 months & 2 yrs (Optic Stowaway loggers),,~10 yrs (HOBO Aqua Pro),11,,,NA,,0.2,,,Not mentioned,,Not mentioned,,Yes,,"Edmunds et al., 2021",http://dx.doi.org/10.1002/lno.11650,,
Lena,Onset Computer Corporation,Optic Stowaway,Optic Stowaway,"west Little Lameshur Bay (N 18¬∞ 19.023‚∏ç, W64¬∞ 43.682‚∏ç), Europa Bay (N 18¬∞ 18.996‚∏ç, W64¬∞ 43.793‚∏ç), White Point (N 18¬∞ 18.879‚∏ç, W64¬∞ 43.891‚∏ç), Cabritte Horn (N 18¬∞ 18.421‚∏ç, W64¬∞ 43.279‚∏ç), east Tektite (N 18¬∞ 18.657‚∏ç, W64¬∞ 43.312‚∏ç), and Neptune's Table (N 18¬∞ 18.739‚∏ç, W64¬∞ 43.379‚∏ç)",18.30702,-64.72132,Caribbean,,,Ecology,15,30,NA,15-30,"January 1992-April 1997, and November 1997 to August 1999","May 1997 to October 1997, and August 1999 to August 2001",August 2001 to August 2008,,11,9,9,NA,,0.3,0.2,,Not mentioned,,Not mentioned,,No,,"Brown and Edmunds, 2013",http://dx.doi.org/10.1016/j.jembe.2013.01.013,,
Wally,Onset Computer Corporation,Optic Stowaway,Optic Stowaway,"St. John's, USVI (18.307¬∫, -64.722¬∫)",18.307,-64.722,Caribbean,,,Physical Oceanography,Not mentioned,,NA,,22 yrs,,,,9,14,,NA,,0.3,0.2,,Not mentioned,,Not mentioned,,No,,Edmunds and Gray 2014,http://dx.doi.org/10.1007/s10750-014-1876-7,,
Wally,Onset Computer Corporation,Optic Stowaway,Optic Stowaway,"Zaki's Reef, Egypt",29.91667,32.36667,Egypt,,,Physical Oceanography,30,,NA,,11-14 months,,,,Not mentioned,,,NA,,Not mentioned,,,Not mentioned,,Not mentioned,,No,,Moustafa et al. 2014,http://dx.doi.org/10.1016/j.seares.2014.01.012,,
Jess,Onset Computer Corporation,Stowaway XTI,Stowaway XTI,"John Smith's Bay, Bermuda",32.3189,-64.7128,Bermuda,,,Biogeochemistry,1440,,NA,(daily),1825 (1996-2001),,,,13,,,NA,,Not mentioned,,,Not mentioned,,Not mentioned,,No,,"Alpert, A. E., Cohen, A. L., Oppo, D. W., DeCarlo, T. M., Gaetani, G. A., Hernandez-Delgado, E. A., Winter, A., and Gonneea, M. E. (2017), Twentieth century warming of the tropical Atlantic captured by Sr-U paleothermometry, Paleoceanography, 32, 146‚Äì 160, doi:10.1002/2016PA002976.",10.1002/2016PA002976,used to validate sat data and calibrate coral skeleton data,
Jess,Onset Computer Corporation,Stowaway XTI,Stowaway XTI,18.1153¬∞N‚Äì67.9374¬∞W,18.1153,-67.9374,Caribbean,,,Biogeochemistry,15,,NA,,"365 (2009, 2014)",,,,12,13,,NA,,Not mentioned,,,Not mentioned,,Not mentioned,,No,,"Alpert, A. E., Cohen, A. L., Oppo, D. W., DeCarlo, T. M., Gaetani, G. A., Hernandez-Delgado, E. A., Winter, A., and Gonneea, M. E. (2017), Twentieth century warming of the tropical Atlantic captured by Sr-U paleothermometry, Paleoceanography, 32, 146‚Äì 160, doi:10.1002/2016PA002976.",10.1002/2016PA002979,used to validate sat data and calibrate coral skeleton data,
Wally,Onset Computer Corporation,U-26,HOBO DO Data Logger,Guam,13.4443,144.7937,Guam,,,Physical Oceanography,1,5,10,,7 months ,,,,1,25,,NA,,Not mentioned,,,Yes,,Not mentioned,,No,,Comfort et al. 2019,http://dx.doi.org/10.1016/j.rsma.2019.100740,"Range of depths from 1 to 25 (also 6, 10, 15)",
Wally,Onset Computer Corporation,water level data logger,Water level data logger,Guam,13.4443,144.7937,Guam,,,Physical Oceanography,1,5,10,,7 months ,,,,1,25,,NA,,Not mentioned,,,Yes,,Not mentioned,,No,,Comfort et al. 2019,http://dx.doi.org/10.1016/j.rsma.2019.100740,"Range of depths from 1 to 25 (also 6, 10, 15)",
Nicole,Opuhala ,Not mentioned,Not mentioned," Broward County, Florida",26.1901,-80.3659,Florida,,,Physical Oceanography,15,,NA,,~2.5 months,,,,4.8,9.1,,NA,4.8-9.1,0.05,,,Yes,,Yes,,No,,"Hendee et al., 2020",http://dx.doi.org/10.5343/bms.2019.0050,Built own T sensor and compared to HOBO sensors,
Jess,Precision Measurement Engineering Inc,Not mentioned,Not mentioned,"Kilo Nalu Observatory, Oahu, Hawaii, United States",21.288,-157.865,Hawaii,Hawaii,,Physical Oceanography,Not mentioned,0.05,NA,(1x/3sec),approx. 40,approx. 335,,,4.3,6.3,8.7,11,"8.7, 6.3, and 4.3; 1m apart from 5-11m",Not mentioned,,,Not mentioned,,Not mentioned,,No,,"Molina, L., Pawlak, G., Wells, J. R., Monismith, S. G., and Merrifield, M. A. (2014), Diurnal cross-shore thermal exchange on a tropical forereef, J. Geophys. Res. Oceans, 119, 6101‚Äì 6120, doi:10.1002/2013JC009621.",10.1002/2013JC009621,depths relative to mean water surface; all info here relevant to second thermistor chain,
Jess,RBR,XR-420 CTDs,XR-420 CTDs,"near 22‚àò21‚Ä≤‚ÄâS, 40‚àò21‚Ä≤‚ÄâE",-22.35,40.35,Madagascar,Europa Island,,Biogeochemistry,Not mentioned,,NA,", can't find cited paper",approx. 547,,,,Not mentioned,,,NA, can't find cited paper,Not mentioned,,,Not mentioned,,Not mentioned,,No,"not from temp gauge, only from corals","Zinke, J., D'Olivo, J. P., Gey, C. J., McCulloch, M. T., Bruggemann, J. H., Lough, J. M., and Guillaume, M. M. M.: Multi-trace-element sea surface temperature coral reconstruction for the southern Mozambique Channel reveals teleconnections with the tropical Atlantic, Biogeosciences, 16, 695‚Äì712, https://doi.org/10.5194/bg-16-695-2019, 2019.",10.5194/bg-16-695-2019,"Used in situ data collected by Testut L., Duvat V., Ballu V., Fernandes R. M. S., Pouget F., Salmon C., and Dyment J.: Shoreline changes in a rising sea level context: The example of Grande Glorieuse, Scattered Islands, Western Indian Ocean, Acta Oecol., 72, 110‚Äì119, 2016.‚ÄÇ",
Lena,RBR,RBRSolo3T,RBRSolo3T,"Chagos Archipelago, Maldives",-6,71.5,Chagos Archipelago,Diego Garcia,,Ecology,Not mentioned,,NA,,Not mentioned,,,,2,50,,NA,,Not mentioned,,,Not mentioned,,Not mentioned,,Yes,,"Harris et al., 2021",http://dx.doi.org/10.1002/ece3.7357,,
Wally,RBR,RBRduo,RBRduo,New Calidonia,-20.9043,165.618,New Caledonia,,,Ecology,Not mentioned,,NA,,1 year,,,,,,,NA,,0.002,,,Not mentioned,,Not mentioned,,No,,Jaffrais et al. 2022,http://dx.doi.org/10.1016/j.aquabot.2022.103515,,
Lena,RBR,XR-420 CTDs,XR-420 CTDs,South East Queensland,-22.5752,144.0848,Australia,,,Ecology,0.167,,NA,,Not mentioned,,,,30,45,60,NA,Inner (30‚Äì40 m depth); Mid (45‚Äì55 m); Outer (60‚Äì70 m),Not mentioned,,,Not mentioned,,Not mentioned,,No,,"Richmond and Stevens, 2014",http://dx.doi.org/10.1016/j.ecss.2013.12.012,,
Lena,RBR,XR-420 CTDs,XR-420 CTDs," (21¬∞ 26‚Äô N, 157¬∞ 47‚Äô W)",21.43333,-157.78333,Hawaii,Hawaii,Oahu,Ecology,1,,NA,,2 days,,,,4.5,,,NA,,Not mentioned,,,Not mentioned,,Not mentioned,,No,,"Lawrence et al., 2015",http://dx.doi.org/10.3354/ame01743,,
Jess,RBR,XR-420 CTDs,XR-420 CTDs,"05520N, 162050W",5.8833,-162.0833,Line Islands,,,Management,0.0167,60,NA,1x/sec to 1x/60min,a few min to 731days,spanning 10-year period,,,10,,,NA,top 10m (values across top 10m averaged),Not mentioned,,,Not mentioned,,Not mentioned,,No,,"Gardner JPA, Bartz RJ, Brainard RE, Collen JD, Dunbar RB, Garton DW, Powell S (2014) Conservation management options and actions: Putative decline of coral cover at Palmyra Atoll, Northern Line Islands, as a case study. Marine Pollution Bulletin 84: 182-190",10.1016/j.marpolbul.2014.05.013,,compiled data from multiple loggers and CTDs
Nicole,RBR,RBR TWR2050,RBR TWR2050,"Manihiki (Cook Islands) & Takaroa, Tatakoto and Tubuai (French Polynesia) ",-17.6797,-149.4068,French Polynesia,Tahiti,,Physical Oceanography,15,,NA,15 (RBR TWR2050),2yrs 4 months - 3 yrs 7 months (SBE56),1 yr 2 months - 2 yrs 7 months (RBRduo),,2 yrs 2 months (TWR2050),1.2,,,NA,1.2 (TWR2050),Not mentioned,,,Not mentioned,,Not mentioned,,Yes,,"Van Wynsberge et al., 2017",http://dx.doi.org/10.1016/j.ecss.2017.09.033,10 different sensors used from 3 different models,
Nicole,RBR,RBRduo,RBRduo,"Manihiki (Cook Islands) & Takaroa, Tatakoto and Tubuai (French Polynesia) ",-17.6797,-149.4068,French Polynesia,Tahiti,,Physical Oceanography,30,,NA,30 (SBE56 & RBRduo),2yrs 4 months - 3 yrs 7 months (SBE56),1 yr 2 months - 2 yrs 7 months (RBRduo),,2 yrs 2 months (TWR2050),3.4,4,15,NA,"3.4, 4, 15 (RBRduo)",Not mentioned,,,Not mentioned,,Not mentioned,,Yes,,"Van Wynsberge et al., 2017",http://dx.doi.org/10.1016/j.ecss.2017.09.033,10 different sensors used from 3 different models,
Nicole,ReefNet,Sensus Ultra,Sensus Ultra,"Heron Reef (23¬∞27‚Ä≤W), Great Barrier Reef, Australia",-23.51217,151.9535,Australia,,,Ecology,Not mentioned,,NA,,5 yrs 6 months (SBE-39P)  ,4 yrs 4 months (SBE-16),7 yrs 3 months (Sensus Ultra) ,18 yrs 4 months (Sensus Ultra),0.3,7.9,,NA,0.3 (Sensus Ultra); 7.9 (Sensus Ultra),0.8,,,Not mentioned,,Not mentioned,,Yes,,"Sadler et al., 2016",http://dx.doi.org/10.1002/2015PA002898,,
Nicole,ReefNet,Sensus Ultra,Sensus Ultra,"Lord Howe Island (31.5¬∞S), Australia",-31.55,159.0833,Australia,,,Ecology,30,,NA,,1 yr,,,,2.4,,,NA,,Not mentioned,,,Not mentioned,,Not mentioned,,Yes,,"Anderson et al., 2015",http://dx.doi.org/10.1007/s00338-014-1251-1,,
Nicole,ReefNet,Sensus Ultra,Sensus Ultra,"Thai‚ÄìMalay Peninsula (1‚Äì8¬∞N, 98‚Äì105¬∞E), Southeast Asia ",8,105,Thailand,,,Ecology,60,,NA,,5 months,20 months ,,,Not mentioned,,,NA,,Not mentioned,,,Yes,,Not mentioned,,No,,"Tanzil et al., 2013",http://dx.doi.org/10.1111/gcb.12279,,
Nicole,ReefNet,Sensus Ultra,Sensus Ultra,"Heron Island, Great Barrier Reef, Australia (e.g., ,  and 23¬∞27‚Ä≤14.50‚Ä≥S, 151¬∞55‚Ä≤34.55‚Ä≥E)",-23.44681,151.91667,Australia,,,Ecology,10,,NA,,1 yr and 5 months,,,,1,6,,NA,"""~30cm above substratum"" (~1-6m)",Not mentioned,,,Not mentioned,,Not mentioned,,No,,"van Oppen, 2018",http://dx.doi.org/10.1111/mec.14763,,
Nicole,ReefNet,Sensus Ultra,Sensus Ultra,"Tantabiddi  (21¬∞53'15""S, 113¬∞59'02""E) and (Coral Bay 23¬∞12'30""S, 113¬∞46'18""E), Ningaloo lagoon, Australia",-23.20833,113.77167,Australia,,,Ecology,30,,NA,,26 months,,,,2,5,,NA,5-Feb,Not mentioned,,,Yes,,Not mentioned,,No,,"Fulton et al., 2014",http://dx.doi.org/10.4319/lo.2014.59.1.0156,,
Jess,ReefNet,Sensus Ultra,Sensus Ultra,17.5S 119.0E; 20.5S 116.0E,-17.5,119,Australia,,,Management/Data validation,10,,NA,,approx. 456,,,,Not mentioned,,,NA,0.5m above seafloor,0.8,,,Yes,,Not mentioned,,No,available via cited sources,"Baldock J, Bancroft KP, Williams M, Shedrawi G, Field S (2014) Accurately estimating local water temperature from remotely sensed satellite sea surface temperature: A near real-time monitoring tool for marine protected areas. Ocean & Coastal Management 96: 73-81",10.1016/j.ocecoaman.2014.05.007,,
Lena/Erik,Royal Netherlands Institute for Sea Research,High Resolution NIOZ4 T sensor ,High Resolution NIOZ4 T sensor ,"16¬∞ 31.84‚Ä≤ S, 151¬∞ 42.27‚Ä≤ W",-16.53067,-151.7045,French Polynesia,,,Physical Oceanography,Not mentioned,600 s,NA,"""The T sensors were sampled at a rate of 1 Hz"" ",3 weeks,,,,2,,,NA,,0.0001,,,Yes,,Unclear,,No,,van Haren 2020,http://dx.doi.org/10.2112/JCOASTRES-D-19-00154.1,,
Jess,Ryan Industries,TempMentor 1.0,TempMentor 1.0,"Buck Island National Monument, St Croix",17.78694,-64.61916,Caribbean,,,Biogeochemistry,30,,NA,,approx. 5475 (1992-2007),,,,10,,,NA,,Not mentioned,,,Not mentioned,,Not mentioned,,No,,"Alpert, A. E., Cohen, A. L., Oppo, D. W., DeCarlo, T. M., Gaetani, G. A., Hernandez-Delgado, E. A., Winter, A., and Gonneea, M. E. (2017), Twentieth century warming of the tropical Atlantic captured by Sr-U paleothermometry, Paleoceanography, 32, 146‚Äì 160, doi:10.1002/2016PA002976.",10.1002/2016PA002978,used to validate sat data and calibrate coral skeleton data,
Nicole,Ryan Industries,thermistor,thermistor,"Yawzi Point, St. John, US Virgin Islands",18.3152,-64.7257,Caribbean,,,Ecology,15,30,NA,,1 yr & 1 yr 9 months (Ryan Industries thermistor),5 months & 2 yrs (Optic Stowaway loggers),,~10 yrs (HOBO Aqua Pro),11,,,NA,,0.3,,,Not mentioned,,Not mentioned,,Yes,,"Edmunds et al., 2021",http://dx.doi.org/10.1002/lno.11650,,
Lena,Ryan Industries,thermistor,thermistor,"west Little Lameshur Bay (N 18¬∞ 19.023‚∏ç, W64¬∞ 43.682‚∏ç), Europa Bay (N 18¬∞ 18.996‚∏ç, W64¬∞ 43.793‚∏ç), White Point (N 18¬∞ 18.879‚∏ç, W64¬∞ 43.891‚∏ç), Cabritte Horn (N 18¬∞ 18.421‚∏ç, W64¬∞ 43.279‚∏ç), east Tektite (N 18¬∞ 18.657‚∏ç, W64¬∞ 43.312‚∏ç), and Neptune's Table (N 18¬∞ 18.739‚∏ç, W64¬∞ 43.379‚∏ç)",18.30702,-64.72132,Caribbean,,,Ecology,15,30,NA,15-30,"January 1992-April 1997, and November 1997 to August 1999","May 1997 to October 1997, and August 1999 to August 2001",August 2001 to August 2008,,11,9,9,NA,,0.3,0.2,,Not mentioned,,Not mentioned,,No,,"Brown and Edmunds, 2013",http://dx.doi.org/10.1016/j.jembe.2013.01.013,,
Wally,Ryan Industries,thermistor,thermistor,"St. John's, USVI (18.307¬∫, -64.722¬∫)",18.307,-64.722,Caribbean,,,Physical Oceanography,Not mentioned,,NA,,22 yrs,,,,9,14,,NA,,0.3,0.2,,Not mentioned,,Not mentioned,,No,,Edmunds and Gray 2014,http://dx.doi.org/10.1007/s10750-014-1876-7,,
Lena,Sea-Bird Scientific,SBE 39 Temp,SBE 39,Jarvis Island,-0.37435,-159.99672,Line Islands,,,Biogeochemistry,30,,NA,,10 years,,,,7,15,,NA,7-15m,0.002,,,Not mentioned,,Not mentioned,,Yes,,"Alpert et al., 2016",http://dx.doi.org/10.1002/2015PA002897,,
Nicole,Sea-Bird Scientific,SeapHOx MicroCAT CTD,SBE 37,"Heron Island, Great Barrier Reef, Australia (, )",-23.45,151.91667,Australia,,,Biogeochemistry,30,,NA,,13 months,,,,Not mentioned,,,NA,,0.002,,,Yes,,Not mentioned,,No,,"Stoltenberg et al., 2020",http://dx.doi.org/10.1002/lno.11357,,
Wally,Sea-Bird Scientific,SeaFET,SeaFET,"Lizard Island, Australia ()",-14.66889,145.45944,Australia,,,Biogeochemistry,5,,NA,,~3 weeks,,,,5,,,NA,,Not mentioned,,,Yes,,Not mentioned,,Yes,,Hannan et al. 2020,http://dx.doi.org/10.1007/s00338-020-01973-z,,
Wally,Sea-Bird Scientific,SBE 37,SBE 37,"Gulf of California, Mexico",28.0332,-111.7749,Mexico,,,Biogeochemistry,30,,NA,,9 months,,,,15,,,NA,,0.002,,,Yes,,Not mentioned,,No,,Norzagaray et al. 2020,http://dx.doi.org/10.1016/j.csr.2020.104279,,
Wally,Sea-Bird Scientific,SBE 16,SBE 16,"Cheeca Rocks, Florida and La Parguera, Puerto Rico",24.8977,-80.6182,Florida,,,Biogeochemistry,Not mentioned,,NA,,Not mentioned,,,,1,,,NA,,Not mentioned,,,Not mentioned,,Not mentioned,,Yes,,Melendez et al. 2020,http://dx.doi.org/10.1029/2020JC016108,,
Wally,Sea-Bird Scientific,SBE 37,SBE 37,"Cheeca Rocks, Florida and La Parguera, Puerto Rico",24.8977,-80.6182,Florida,,,Biogeochemistry,Not mentioned,,NA,,Not mentioned,,,,1,,,NA,,Not mentioned,,,Not mentioned,,Not mentioned,,Yes,,Melendez et al. 2020,http://dx.doi.org/10.1029/2020JC016108,,
Wally,Sea-Bird Scientific,SBE 16 plus V2,SBE 16,"Bermuda (32.457¬∫, -64.835¬∫)",32.457,-64.835,Bermuda,,,Biogeochemistry,10,15,120,,~3 weeks,,,,7,,,NA,,0.002,0.005,,Not mentioned,,Not mentioned,,Yes,,Pezner et al. 2021,http://dx.doi.org/10.3389/fmars.2021.562267,,
Jess,Sea-Bird Scientific,SeaFET,SeaFET,"9¬∞44.205‚Ä≤ S, 150¬∞52.039‚Ä≤ E; 9¬∞49.455‚Ä≤ S, 150¬∞49.073‚Ä≤ E",-9.73675,150.86732,Papua New Guinea,Fergusson Island,,Ecology,5,,NA,,1.5-8.5,,,,2,3,,NA,3-Feb,Not mentioned,,,Not mentioned,,Not mentioned,,Yes,,"Lamare Miles D., Liddy Michelle and Uthicke Sven (2016) In situ developmental responses of tropical sea urchin larvae to ocean acidification conditions at naturally elevated pCO2 vent sites. Proc. R. Soc. B.2832016150620161506http://doi.org/10.1098/rspb.2016.1506",10.1098/rspb.2016.1506,,
Eslam,Sea-Bird Scientific,SBE 56,SBE 56,22¬∞ 28.804‚Äô S; 166¬∞ 27.877‚Äô E,-22.48007,166.46462,New Caledonia,,,Ecology,30,,NA,,Not mentioned,,,,2,7,,NA,,Not mentioned,,,Not mentioned,,Not mentioned,,Yes,,"Lorrain A, Clavier J, Th√©bault J, Tremblay-Boyer L and others (2015) Variability in diel and seasonal in situ metabolism of the tropical gastropod Tectus niloticus. Aquat Biol 23:167-182. https://doi.org/10.3354/ab00618",10.3354/ab00618,from ReefTEMPS network,
Nicole,Sea-Bird Scientific,SBE 19 plus CTD,SBE 19  ,"Moorea (), French Polynesia ",-17.53333,-149.83333,French Polynesia,Moorea,,Ecology,1,1,0.5,2 samples/min,2,~2.5 months,~2 months (SBE-39 T),,2.3,6,10,26,"6, 10, 21, 26, 43",Not mentioned,,,Not mentioned,,Not mentioned,,No,,"Herdman et al., 2015",http://dx.doi.org/10.1002/2014JC010145,,
Nicole,Sea-Bird Scientific,SBE 37 CTD,SBE 37,"Moorea (17¬∞32‚Ä≤S, 149¬∞50‚Ä≤W), French Polynesia ",-17.53333,-149.83333,French Polynesia,Moorea,,Ecology,1,1,0.5,2 samples/min,2,~2.5 months,~2 months (SBE-39 T),,2.3,6,10,26,"6, 10, 21, 26, 43",Not mentioned,,,Not mentioned,,Not mentioned,,No,,"Herdman et al., 2015",http://dx.doi.org/10.1002/2014JC010145,,
Nicole,Sea-Bird Scientific,SBE 39T,SBE 39,"Moorea (17¬∞32‚Ä≤S, 149¬∞50‚Ä≤W), French Polynesia ",-17.53333,-149.83333,French Polynesia,Moorea,,Ecology,1,1,0.5,2 samples/min,2,~2.5 months,~2 months (SBE-39 T),,5,15,30,42,"5‚Äì15 m (at 1 m spacing) 17‚Äì29 m (at 2 m spacing) (SBE-39 T); 30, 35, 42 (SBE-39 T)",Not mentioned,,,Not mentioned,,Not mentioned,,No,,"Herdman et al., 2015",http://dx.doi.org/10.1002/2014JC010145,,
Nicole,Sea-Bird Scientific,SBE 16 plus V2,SBE 16,"Heron Reef (23¬∞27‚Ä≤W), Great Barrier Reef, Australia",-23.51217,151.9535,Australia,,,Ecology,Not mentioned,,NA,,5 yrs 6 months (SBE-39P)  ,4 yrs 4 months (SBE-16),7 yrs 3 months (Sensus Ultra) ,18 yrs 4 months (Sensus Ultra),11,1,,NA,,0.005,,,Not mentioned,,Not mentioned,,Yes,,"Sadler et al., 2016",http://dx.doi.org/10.1002/2015PA002898,,
Nicole,Sea-Bird Scientific,SBE 39P,SBE 39,"Heron Reef (23¬∞27‚Ä≤W), Great Barrier Reef, Australia",-23.51217,151.9535,Australia,,,Ecology,Not mentioned,,NA,,5 yrs 6 months (SBE-39P)  ,4 yrs 4 months (SBE-16),7 yrs 3 months (Sensus Ultra) ,18 yrs 4 months (Sensus Ultra),11,1,,NA,,Not mentioned,,,Not mentioned,,Not mentioned,,Yes,,"Sadler et al., 2016",http://dx.doi.org/10.1002/2015PA002898,,
Nicole,Sea-Bird Scientific,SBE 37s,SBE 37,Palmyra Atoll (),5.86667,-162.08333,Line Islands,,,Ecology,Not mentioned,,NA," ""battery power constrained sampling frequencies""",~1 yr,~ 1yr,,,10,20,30,NA,,Not mentioned,,,Not mentioned,,Not mentioned,,No,,"Rogers et al., 2016",http://dx.doi.org/10.1002/lno.10365,,
Nicole,Sea-Bird Scientific,SBE 56 thermistors,SBE 56,"Palmyra Atoll (5¬∞ 52‚Ä≤N, 162¬∞ 05‚Ä≤W)",5.86667,-162.08333,Line Islands,,,Ecology,Not mentioned,,NA," ""battery power constrained sampling frequencies""",~1 yr,~ 1yr,,,10,20,30,NA,,Not mentioned,,,Not mentioned,,Not mentioned,,No,,"Rogers et al., 2016",http://dx.doi.org/10.1002/lno.10365,,
Wally,Sea-Bird Scientific,SBE 39s,SBE 39,"Moorea, French Polynesia and St. John, USVI",-17.5,-149.83333,French Polynesia,Moorea,,Ecology,0.25,2,NA,,14 yrs,,,,10,20,,NA,,0.002,,,Not mentioned,,Not mentioned,,Yes,,Edmunds 2021,http://dx.doi.org/10.1002/lno.11693,,
Lena,Sea-Bird Scientific,SBE 37,SBE 37,"Stetson Bank, NW Gulf of Mexico",28.2,-94.3,Texas,,,Ecology,60,,NA,,"1993‚Äì1995, 2002‚Äì2008",2008,,,23.5,,,NA,,Not mentioned,,,Not mentioned,,Not mentioned,,No,?,"DeBose et al., 2013",http://dx.doi.org/10.1007/s00338-012-0971-3,,
Nicole,Sea-Bird Scientific,SBE 3F,SBE 3,"Bundegi, Australia",-21.85,114.15,Australia,,,Ecology,Not mentioned,,NA,,1 yr and 5 months,,,,Not mentioned,,,NA,,Not mentioned,,,Not mentioned,,Not mentioned,,No,,"Depczynski et al., 2013",http://dx.doi.org/10.1007/s00338-012-0974-0,,
Wally,Sea-Bird Scientific,SBE 16 plus V2,SBE 16,"Al Fahal reef, Saudi Arabia (22¬∫14'59"", 38¬∫57'45"")",22.24972,38.9625,Saudi Arabia,,,Ecology,60,,NA,,1 year,,,,8,8,,NA,,Not mentioned,0.2,,Not mentioned,,Not mentioned,,No,,Roik et al. 2016,http://dx.doi.org/10.1007/s00338-015-1383-y,,
Nicole,Sea-Bird Scientific,SBE 16 plus V2,SBE 16,"Cheeca Rocks (, )",24.8977,-80.6182,Florida,,,Ecology,180,,NA,,2 months,,,,1,,,NA,,Not mentioned,,,Not mentioned,,Not mentioned,,No,,"Gintert et al., 2018",http://dx.doi.org/10.1007/s00338-018-1678-x,,
Gage,Sea-Bird Scientific,SBE 56,SBE 56,Kirimati (Christmas) Island,1.8721,-157.4278,Line Islands,Christmas Island,,Ecology,60,,NA,,7 months,,,,10,12,,NA,12-Oct,Not mentioned,,,Not mentioned,,Not mentioned,,No,,McDevitt-Irwin et al. 2019,http://dx.doi.org/10.1007/s00338-019-01779-8,,
Nicole,Sea-Bird Scientific,SBE37 microcat (SeapHOx),SBE 37,"Galveston, Texas (27¬∫54.5 N, 93¬∫36.0 W) & (27¬∫52.4 N, 93¬∫48.8 W)",27.90833,-93.6,Texas,,,Ecology,60,,NA,,1 yr,,,,22,28,30,40,,Not mentioned,,,Not mentioned,,Not mentioned,,No,,"Johnston et al., 2019",http://dx.doi.org/10.1007/s00338-019-01788-7,,
Nicole,Sea-Bird Scientific,SBE37 microcat (SeapHOx),SBE 37,Palmyra Atoll ,5.86667,-162.08333,Line Islands,,,Ecology,30,,NA,,~ 6 yrs,,,,5,10,,NA,10-May,0.01,," (SBE-37, not mentioned for TDFET)",Not mentioned,,Not mentioned,,No,,"Fox et al., 2019",http://dx.doi.org/10.1007/s00338-019-01796-7,,
Nicole,Sea-Bird Scientific,SeaFET,SeaFET,Palmyra Atoll ,5.86667,-162.08333,Line Islands,,,Ecology,30,,NA,,~ 6 yrs,,,,5,10,,NA,10-May,0.01,," (SBE-37, not mentioned for TDFET)",Not mentioned,,Not mentioned,,No,,"Fox et al., 2019",http://dx.doi.org/10.1007/s00338-019-01796-7,,
Lena,Sea-Bird Scientific,SBE 39,SBE 39,"Moorea, French Polynesia ",-17.5,-149.83333,French Polynesia,Moorea,,Ecology,2,,NA,,2005-2019,,,,10,20,,NA,,0.002,,,Not mentioned,,Not mentioned,,Yes,,"Johnston et al., 2022",http://dx.doi.org/10.1007/s00338-021-02107-9,,
Lena,Sea-Bird Scientific,SBE 56,SBE 56,"Moorea, French Polynesia ",-17.5,-149.83333,French Polynesia,Moorea,,Ecology,2,,NA,,2005-2019,,,,10,20,,NA,,0.002,,,Not mentioned,,Not mentioned,,Yes,,"Johnston et al., 2022",http://dx.doi.org/10.1007/s00338-021-02107-9,,
Lena,Sea-Bird Scientific,SBE 39 thermistor,SBE 39,"Moorea, French Polynesia",-17.5,-149.83333,French Polynesia,Moorea,,Ecology,Not mentioned,,NA,,6 months? Not specified,,,,10,,,NA,,0.002,,,Not mentioned,,Not mentioned,,No,,"Edmunds et al., 2022",http://dx.doi.org/10.1007/s00338-021-02204-9,,
Nicole,Sea-Bird Scientific,SBE 39 thermistor,SBE 39,"Mo‚Äôorea, French Polynesia (17.4731¬∞ S, 149.8176¬∞W (forereef) and 14.4751¬∞ S, 149.8170¬∞ W (backreef))",-17.4731,-149.8176,French Polynesia,Moorea,,Ecology,20,,NA,,1 yr,,,,10,,,NA,,Not mentioned,,,Not mentioned,,Not mentioned,,Yes,,"Leinbach et al., 2023",http://dx.doi.org/10.1007/s00338-022-02316-w,,
Lena,Sea-Bird Scientific,SBE 39,SBE 39,"Heron Island, Davies Reef, Lizard Island, Thursday Island, Great Barrier Reef",-23.45,151.91667,Australia,,,Ecology,Not mentioned,,NA,,Not mentioned,,,,Not mentioned,,,NA,,Not mentioned,,,Not mentioned,,Not mentioned,,Yes,?,"Scott, 2019",http://dx.doi.org/10.1016/j.jmarsys.2019.103187,,
Nicole,Sea-Bird Scientific,SBE 56,SBE 56,"Hatohobei Island and Helen Reef, Palau",7.515,134.5825,Palau,Babelthuap,,Ecology,30,1,NA,,~ 5 yrs,,,,15,35,57,NA,,Not mentioned,,,Not mentioned,,Not mentioned,,Yes,,"Johnston and Colin, 2022",http://dx.doi.org/10.1029/2021JC017606,,
Lena,Sea-Bird Scientific,SBE 39 Temp and Pressure,SBE 39,"Kenting National Park, Taiwan",21.9553,120.7544,Taiwan,,,Ecology,5,,NA,,13 months,,,,Not mentioned,,,NA,,0.002,,,Not mentioned,,Not mentioned,,Yes,,"Beyan et al., 2015",http://dx.doi.org/10.1093/icesjms/fsv104,accuracy at ‚àí5 to 35¬∞C,
Lena,Sea-Bird Scientific,SBE 39 STR,SBE 39,(0¬∞22‚Ä≤S 160¬∞01‚Ä≤W),-0.36667,-160.01667,Line Islands,,,Ecology,15,30,0.167,15-30,2190,1095,,,10,15,Not mentioned,NA,15-Oct,0.002,,,Not mentioned,,Not mentioned,,No,,"Aston et al., 2018",http://dx.doi.org/10.1111/ecog.04097,,
Nicole,Sea-Bird Scientific,SBE 16 plus V2,SBE 16,"""Upper and Lower Florida Keys""",24.6914,-81.18968,Florida,,,Ecology,60,180,NA,,~8 months,,,,Not mentioned,1,,NA,,Not mentioned,,,Yes,,Not mentioned,,Yes,,"Manzello et al., 2019",http://dx.doi.org/10.1111/gcb.14545,,
Nicole,Sea-Bird Scientific,SBE 56,SBE 56,"""Upper and Lower Florida Keys""",24.6914,-81.18968,Florida,,,Ecology,60,180,NA,,~8 months,,,,Not mentioned,1,,NA,,Not mentioned,,,Yes,,Not mentioned,,Yes,,"Manzello et al., 2019",http://dx.doi.org/10.1111/gcb.14545,,
Nicole,Sea-Bird Scientific,SBE 39,SBE 39,"Moorea, French Polynesia",-17.5,-149.83333,French Polynesia,Moorea,,Ecology,20,,NA,,~14 yrs,,,,10,,,NA,,Not mentioned,,,Not mentioned,,Not mentioned,,Yes,,"Speare et al., 2022",http://dx.doi.org/10.1111/gcb.16000,,
Wally,Sea-Bird Scientific,SBE 37,SBE 37,Palmyra Atoll,5.86667,-162.08333,Line Islands,,,Ecology,2.5,,NA,,~1 yr,,,,20,,,NA,,0.002,,,Not mentioned,,Not mentioned,,No,,Gove et al. 2015,http://dx.doi.org/10.3354/meps11118,,
Wally,Sea-Bird Scientific,Not mentioned,Not mentioned,Florida Keys,24.58588,-81.58143,Florida,,,Ecology,120,,NA,,Not mentioned,,,,10,20,,NA,,Not mentioned,,,Not mentioned,,Not mentioned,,No,,Vega-Rodriguez et al. 2015,http://dx.doi.org/10.3354/meps11268,,
Wally,Sea-Bird Scientific,SeapHox,SeapHox,"Woody Isles, Australia (,)",-16.388,145.566,Australia,,,Ecology,10,,NA,,50d,,,,1,,,NA,,Not mentioned,,,Yes,,Not mentioned,,No,,Camp et al. 2019,http://dx.doi.org/10.3354/meps13073,,
Wally,Sea-Bird Scientific,SBE 16 plus V2,SBE 16,"Heron Island, Australia",-23.45,151.91667,Australia,,,Ecology,60,,NA,,1 yr,,,,5,8,Not mentioned,NA,reef crest,Not mentioned,,,Not mentioned,,Not mentioned,,Yes,,Brown et al. 2021,http://dx.doi.org/10.3389/fmars.2018.00181,,
Wally,Sea-Bird Scientific,SEACAT,SEACAT,"Heron Island, Australia",-23.45,151.91667,Australia,,,Ecology,60,,NA,,1 yr,,,,5,8,Not mentioned,NA,reef crest,Not mentioned,,,Not mentioned,,Not mentioned,,Yes,,Brown et al. 2021,http://dx.doi.org/10.3389/fmars.2018.00181,,
Wally,Sea-Bird Scientific,MicroCAT,SBE 37,Chagos Archipelago,-6,71.5,Chagos Archipelago,Diego Garcia,,Ecology,0.5,10,NA,,2 yrs,,,,5,9,,NA,,Not mentioned,,,Yes,,Not mentioned,,No,,Steyaert et al. 2022,http://dx.doi.org/10.3389/fmars.2022.932375,,
Wally,Sea-Bird Scientific,SBE 56,SBE 56,Chagos Archipelago,-6,71.5,Chagos Archipelago,Diego Garcia,,Ecology,0.5,10,NA,,2 yrs,,,,5,9,,NA,,Not mentioned,,,Yes,,Not mentioned,,No,,Steyaert et al. 2022,http://dx.doi.org/10.3389/fmars.2022.932375,,
Nicole,Sea-Bird Scientific,SBE 40,SBE 40,"Tantabiddi  (21¬∞53'15""S, 113¬∞59'02""E) and (Coral Bay ), Ningaloo lagoon, Australia",-23.20833,113.77167,Australia,,,Ecology,30,,NA,,26 months,,,,2,5,,NA,5-Feb,Not mentioned,,,Yes,,Not mentioned,,No,,"Fulton et al., 2014",http://dx.doi.org/10.4319/lo.2014.59.1.0156,,
Jess,Sea-Bird Scientific,SBE 39,SBE 39,17.4803 S 149.7989 W,-17.4803,-149.7989,French Polynesia,Moorea,,Ecology,Not mentioned,,NA,,56,,,,3.3,,,NA,,Not mentioned,,,Not mentioned,,Not mentioned,,Yes,,"Rivest EB, Gouhier TC (2015) Complex Environmental Forcing across the Biogeographical Range of Coral Populations. PLoS ONE 10(3): e0121742. https://doi.org/10.1371/journal.pone.0121742",https://doi.org/10.1371/journal.pone.0121742,"info on sensors from  Rivest and Gouhier (2015) but filled in for Rivest EB, Hofmann GE (2015) Effects of temperature and pCO2 on lipid use and biological parameters of planulae of Pocillopora damicornis. Journal of Experimental Marine Biology and Ecology 473: 43-52 10.1016/j.jembe.2015.07.015",
Eslam,Sea-Bird Scientific,SBE 37-SMP MicroCAT,SBE 37,Flower Garden Banks,27.8841,-93.8147,Texas,,,Ecology,Not mentioned,,NA,,1/2009-11/2012,,,,Not mentioned,,,NA,,Not mentioned,,,Not mentioned,,Not mentioned,,No,,,https://www.sciencedirect.com/science/article/pii/S1568988313001054?via%3Dihub,,
Erik,Sea-Bird Scientific,Not mentioned,Not mentioned,"Calerita Beach, Mexico (2 coordinates available)",24.59315,-110.47648,Mexico,,,Ecology/Biogeochemistry,Not mentioned,,NA,,1 month (?) each in Sep and Feb 2018,,,,0.3,,,NA,(max),Not mentioned,,,Not mentioned,,Not mentioned,,No,,,https://doi.org/10.1016/j.scitotenv.2020.143877,,
Jess,Sea-Bird Scientific,SBE 39,SBE 39,"05520N, 162050W",5.8833,-162.0833,Line Islands,,,Management,0.0167,60,NA,1x/sec to 1x/60min,a few min to 731days,spanning 10-year period,,,10,,,NA,top 10m (values across top 10m averaged),Not mentioned,,,Not mentioned,,Not mentioned,,No,,"Gardner JPA, Bartz RJ, Brainard RE, Collen JD, Dunbar RB, Garton DW, Powell S (2014) Conservation management options and actions: Putative decline of coral cover at Palmyra Atoll, Northern Line Islands, as a case study. Marine Pollution Bulletin 84: 182-190",10.1016/j.marpolbul.2014.05.013,,compiled data from multiple loggers and CTDs
Jess,Sea-Bird Scientific,SBE 39,SBE 39,"Kilo Nalu Observatory, Oahu, Hawaii, United States",21.288,-157.865,Hawaii,Hawaii,,Physical Oceanography,Not mentioned,0.05,NA,(1x/3sec),approx. 40,approx. 335,,,4.3,6.3,8.7,11,"8.7, 6.3, and 4.3; 1m apart from 5-11m",Not mentioned,,,Not mentioned,,Not mentioned,,No,,"Molina, L., Pawlak, G., Wells, J. R., Monismith, S. G., and Merrifield, M. A. (2014), Diurnal cross-shore thermal exchange on a tropical forereef, J. Geophys. Res. Oceans, 119, 6101‚Äì 6120, doi:10.1002/2013JC009621.",10.1002/2013JC009621,depths relative to mean water surface; all info here relevant to second thermistor chain,
Jess,Sea-Bird Scientific,SBE 37,SBE 37,"Scott Reef, Australia",-14.0501,121.8001,Australia,,,Physical Oceanography,Not mentioned,,NA,,not mentioned,,,,400,200,,NA,,Not mentioned,,,Not mentioned,,Not mentioned,,Yes,,"Rayson, MD; Ivey, GN; Jones, NL; Fringer, OB (2018) Resolving high-frequency internal waves generated at an isolated coral atoll using an unstructured grid ocean model. OCEAN MODELLING 122: 67-84. http://dx.doi.org/10.1016/j.ocemod.2017.12.007",10.1016/j.ocemod.2017.12.007,11-19 sensors per mooring (in 400m and 200m isobaths) in channel between two coral reefs; Argo drifting profiling floats,
Jess,Sea-Bird Scientific,SBE 39,SBE 39,"Scott Reef, Australia",-14.0501,121.8001,Australia,,,Physical Oceanography,Not mentioned,,NA,,not mentioned,,,,400,200,,NA,,Not mentioned,,,Not mentioned,,Not mentioned,,Yes,,"Rayson, MD; Ivey, GN; Jones, NL; Fringer, OB (2018) Resolving high-frequency internal waves generated at an isolated coral atoll using an unstructured grid ocean model. OCEAN MODELLING 122: 67-84. http://dx.doi.org/10.1016/j.ocemod.2017.12.007",10.1016/j.ocemod.2017.12.007,11-19 sensors per mooring (in 400m and 200m isobaths) in channel between two coral reefs; Argo drifting profiling floats,
Jess,Sea-Bird Scientific,SBE 56,SBE 56,"Scott Reef, Australia",-14.0501,121.8001,Australia,,,Physical Oceanography,Not mentioned,,NA,,not mentioned,,,,400,200,,NA,,Not mentioned,,,Not mentioned,,Not mentioned,,Yes,,"Rayson, MD; Ivey, GN; Jones, NL; Fringer, OB (2018) Resolving high-frequency internal waves generated at an isolated coral atoll using an unstructured grid ocean model. OCEAN MODELLING 122: 67-84. http://dx.doi.org/10.1016/j.ocemod.2017.12.007",10.1016/j.ocemod.2017.12.007,11-19 sensors per mooring (in 400m and 200m isobaths) in channel between two coral reefs; Argo drifting profiling floats,
Eslam,Sea-Bird Scientific,SBE 37-SM MicroCAT,SBE 37,"37.395¬∞E, 19.720¬∞N",19.72,37.395,Saudi Arabia,,,Physical Oceanography,60,,NA,,365,,,,37,,,NA,,0.002,,,Not mentioned,,Not mentioned,,No,,"Elsheikh B. Ali, James H. Churchill, Knut Barthel, Ingunn Skjelvan, Abdirahman M. Omar, Tor E. de Lange, Elfatih B.A. Eltaib (2018) Seasonal variations of hydrographic parameters off the Sudanese coast of the Red Sea, 2009‚Äì2015. Regional Studies in Marine Science 18: 1-10",10.1016/j.rsma.2017.12.004,,
Jess,Sea-Bird Scientific,SeapHOx (SBE 37SMP-ODO MicroCAT CTD),SBE 37,28.605¬∞S and 153.629¬∞E,-28.605,153.629,Australia,,,Physical Oceanography,15,,NA,,approx. 60,,,,15.6,,,NA,,0.01,,,Yes,,Not mentioned,,Yes,,"Schulz KG, Hartley S and Eyre B (2019) Upwelling Amplifies Ocean Acidification on the East Australian Shelf: Implications for Marine Ecosystems. Front. Mar. Sci. 6:636. doi: 10.3389/fmars.2019.00636",10.3389/fmars.2019.00636,,
Jess,Sea-Bird Scientific,SBE 19 plus CTD,SBE 19  ,"15.1¬∞S, 147.6¬∞W",-15.1,-147.6,French Polynesia,,,Physical Oceanography,Not mentioned,,NA,,5,,,,37,,,NA,,Not mentioned,,,Not mentioned,,Not mentioned,,Yes,,"Vollbrecht C, Moehlenkamp P, Gove JM, Neuheimer AB and McManus MA (2021) Long-Term Presence of the Island Mass Effect at Rangiroa Atoll, French Polynesia. Front. Mar. Sci. 7:595294. doi: 10.3389/fmars.2020.595294",10.3389/fmars.2020.595294,,
Jess,Sea-Bird Scientific,SBE 56,SBE 56,4 stations on either side of Palau,7.51498,134.58252,Palau,Babelthuap,,Physical Oceanography,30,,NA,,"approx. 90-912,dependent on site/depth, (http://wtc.coralreefpalau.org/) lists site, depth, deployment dates for each model of logger",,,,2,90,,NA,Feb-90,0.1,,,Yes,,Not mentioned,,Yes,,"Sch√∂nau, M.C., H.W. Wijesekera, W.J. Teague, P.L. Colin, G. Gopalakrishnan, D.L. Rudnick, B.D. Cornuelle, Z.R. Hallock, and D.W. Wang. 2019. The end of an El Ni√±o: A view from Palau. Oceanography 32(4):32‚Äì45, https://doi.org/10.5670/ oceanog.2019.409.",10.5670/oceanog.2019.409,,
Wally,Sea-Bird Scientific,SBE 39,SBE 39,Florida Keys ,24.58588,-81.58143,Florida,,,Physical Oceanography,10,2,NA,,4,6,,,10,20,30,NA,,0.2,0.001,,Not mentioned,,Not mentioned,,No,,Leichter et al. 2014,http://dx.doi.org/10.1002/2013JC009371,"For the hobos, they sample at 0.5 second intervals but recorded 10-min averages",
Gage,Sea-Bird Scientific,SBE 3 Temp,SBE 3,"Flower Garden Banks National Marine Sancuary, Gulf of Mexico",27.8841,-93.8147,Texas,,,Physical Oceanography,0.5,,NA,,14 days,,,,Not mentioned,,,NA,,Not mentioned,,,Not mentioned,,Not mentioned,,Yes,,Jarosz et al. 2014,http://dx.doi.org/10.1002/2014JC009934,,
Wally,Sea-Bird Scientific,Not mentioned,Not mentioned,Myrmidon Reef (),-18.22,147.34,Australia,,,Physical Oceanography,1,5,10,,6 years,,,,Not mentioned,,,NA, (see notes),Not mentioned,,,Not mentioned,,Not mentioned,,Yes,,Benthuysen et al. 2016,http://dx.doi.org/10.1002/2016JC012294,This was using moorings - do we include? Says they positioned 6 temp loggers at 8-30 meter intervals along70 meters of mooring line,
Wally,Sea-Bird Scientific,SBE 16 plus V2,SBE 16,"Heron Island, Australia",-23.45,151.91667,Australia,,,Physical Oceanography,180,,NA,,Not mentioned,,,,Not mentioned,,,NA,,0.005,,,Not mentioned,,Not mentioned,,Yes,,Sadler et al. 2016,http://dx.doi.org/10.1002/2016PA002943,,
Nicole,Sea-Bird Scientific,SBE 39,SBE 39,"(113.947, ‚àí21.8669), (113.9332, ‚àí21.8599), (113.9068, ‚àí21.8497), (113.8867, ‚àí21.8365), Ningaloo Reef, Western Australia",-21.8669,113.947,Australia,,,Physical Oceanography,Not mentioned,,NA,,2 months,,,,50,150,,NA,,Not mentioned,,,Not mentioned,,Not mentioned,,No,,"Xu et al., 2013",http://dx.doi.org/10.1002/jgrc.20098,,
Nicole,Sea-Bird Scientific,SBE37 microcat (SeapHOx),SBE 37,"Cabo Pulmo reef, Gulf of California",23.41667,-109.41667,Mexico,,,Physical Oceanography,30,,NA,,5 months,,,,15,,,NA,,0.002,,,Not mentioned,,Not mentioned,,No,,"Norzagaray-Lopez et al., 2017",http://dx.doi.org/10.1002/lno.10571,,
Wally,Sea-Bird Scientific,MicroCAT,SBE 37,Palau,7.51498,134.58252,Palau,Babelthuap,,Physical Oceanography,Not mentioned,,NA,,4 days,,,,1,3,,NA,,Not mentioned,,,Not mentioned,,Not mentioned,,No,,Shamberger et al. 2017,http://dx.doi.org/10.1002/lno.10662,,
Wally,Sea-Bird Scientific,SeaGauge,SBE 26,Palau,7.51498,134.58252,Palau,Babelthuap,,Physical Oceanography,Not mentioned,,NA,,4 days,,,,1,3,,NA,,Not mentioned,,,Not mentioned,,Not mentioned,,No,,Shamberger et al. 2017,http://dx.doi.org/10.1002/lno.10662,,
Wally,Sea-Bird Scientific,SBE 56,SBE 56,"Scott reef, Australia",-14.0501,121.8001,Australia,,,Physical Oceanography,0.008333333,,NA,,2 weeks,,,,16,41,,NA,,0.002,,,Not mentioned,,Not mentioned,,No,,Green et al. 2019,http://dx.doi.org/10.1002/lno.11051,Temp loggers on mooring between 27 and 2m above seabed (mooring 43m deep),
Wally,Sea-Bird Scientific,SBE 56,SBE 56,"Dongsha Atoll, South China Sea",20.6553,116.9008,China,,,Physical Oceanography,1,,NA,,1 week,,,,0.5,3.5,,NA,,0.002,,,Yes,,Not mentioned,,No,,Reid et al. 2019,http://dx.doi.org/10.1002/lno.11162,"""reef flat is 0.5 to 3.5m""",
Lena,Sea-Bird Scientific,SBE 56,SBE 56,Palmyra atoll,5.86667,-162.08333,Line Islands,,,Physical Oceanography,0.167,,NA,,654 days,,,,Not mentioned,,,NA,reef floor ,0.002,,,Not mentioned,,Not mentioned,,No,?,"Williams et al., 2018",http://dx.doi.org/10.1007/s00227-018-3314-2,,
Lena,Sea-Bird Scientific,SBE 56,SBE 56,"Kiritimati (Christmas Island, Republic of Kiribati)",1.8721,-157.4278,Line Islands,Christmas Island,,Physical Oceanography,2,1,60,,2011-2016,,,,8,12,,NA,12-Aug,0.002,,,Not mentioned,,Not mentioned,,No,,"Claar et al., 2019",http://dx.doi.org/10.1007/s00338-019-01850-4,,
Lena/Erik,Sea-Bird Scientific,SBE 37,SBE 37,,27.975,-93.632,Hawaii,Hawaii,,Physical Oceanography,6,,NA,,2010-2011,,,,100,,,NA,?,0.002,,,Not mentioned,,Not mentioned,,No,,"Teague et al., 2013",http://dx.doi.org/10.1016/j.csr.2013.04.039,,
Nicole,Sea-Bird Scientific,SBE 56,SBE 56,"Manihiki (Cook Islands) & Takaroa, Tatakoto and Tubuai (French Polynesia) ",-17.6797,-149.4068,French Polynesia,Tahiti,,Physical Oceanography,30,,NA,30 (SBE56 & RBRduo),2yrs 4 months - 3 yrs 7 months (SBE56),1 yr 2 months - 2 yrs 7 months (RBRduo),,2 yrs 2 months (TWR2050),1,5,20,NA,"1, 2, 2.8, 4, 5, 20 (SBE)",Not mentioned,,,Not mentioned,,Not mentioned,,Yes,,"Van Wynsberge et al., 2017",http://dx.doi.org/10.1016/j.ecss.2017.09.033,10 different sensors used from 3 different models,
Wally,Sea-Bird Scientific,SBE 37,SBE 37,Hawaii,19.8987,-155.6659,Hawaii,Hawaii,,Physical Oceanography,Not mentioned,,NA,,2 weeks,,,,11,,,NA,,Not mentioned,,,Yes,,Not mentioned,,No,,Abaya et al. 2018,http://dx.doi.org/10.1016/j.marpolbul.2018.03.028,,
Wally,Sea-Bird Scientific,Satlantic SeaFET,Satlantic SeaFET,Guam,13.4443,144.7937,Guam,,,Physical Oceanography,1,5,10,,7 months ,,,,1,25,,NA,,Not mentioned,,,Yes,,Not mentioned,,No,,Comfort et al. 2019,http://dx.doi.org/10.1016/j.rsma.2019.100740,"Range of depths from 1 to 25 (also 6, 10, 15)",
Wally,Sea-Bird Scientific,SBE 16,SBE 16,Guam,13.4443,144.7937,Guam,,,Physical Oceanography,1,5,10,,7 months ,,,,1,25,,NA,,Not mentioned,,,Yes,,Not mentioned,,No,,Comfort et al. 2019,http://dx.doi.org/10.1016/j.rsma.2019.100740,"Range of depths from 1 to 25 (also 6, 10, 15)",
Wally,Sea-Bird Scientific,SBE 26,SBE 26,"Dongsha Atoll, South China Sea",20.6553,116.9008,China,,,Physical Oceanography,10,,NA,,1 week,,,,0.6,0.9,2,NA,,Not mentioned,,,Yes,,Not mentioned,,Yes,,Ried et al. 2020,http://dx.doi.org/10.1029/2020JC016543,"They also use a fiber optic temperature logger thingy, should we include it?",
Lena,Sea-Bird Scientific,SBE 56,SBE 56,"7¬∞37.800'N, 134¬∞40.150'E",7.63,134.66917,Palau,Babelthuap,,Physical Oceanography?,60,1,NA,,Onset: 2010-2014,SeaBird: 2017-2019,,,95,,,NA,,Not mentioned,,,Not mentioned,,Not mentioned,,No,,"Colin et al., 2019",http://dx.doi.org/10.5670/oceanog.2019.422,,
Lena/Erik,Sea-Bird Scientific,SBE 37,SBE 37,"158¬∞W, about 1 km offshore from Makua Beach, Oahu",21.5319,-158.2294,Hawaii,Hawaii,Oahu,Physical Oceanography? ,0.25,0.25,1,,April 20 - May 12 2009 ,April 11 - April 30 2010,,,11,30,25,NA,,0.002,,,Yes,,Not mentioned,,No,,"Sevadjian et al., 2012",http://dx.doi.org/10.1016/j.csr.2012.09.006,,
Lena/Erik,Sea-Bird Scientific,SBE 39 ,SBE 39,"158¬∞W, about 1 km offshore from Makua Beach, Oahu",21.5319,-158.2294,Hawaii,Hawaii,Oahu,Physical Oceanography? ,0.25,0.25,1,,April 20 - May 12 2009 ,April 11 - April 30 2010,,,11,30,10,20,,0.002,,,Yes,,Not mentioned,,No,,"Sevadjian et al., 2012",http://dx.doi.org/10.1016/j.csr.2012.09.006,,
Nicole,Sea-Bird Scientific,SBE 56,SBE 56,"Pool 100 (), Ofu",-14.185,-169.666,Samoa,,,Physical Oceanography/Biogeochemistry,Not mentioned,,NA,,~3 months,,,,Not mentioned,,,NA,0.1 meters above bottom,Not mentioned,,,Not mentioned,,Not mentioned,,No,,"Koweek et al., 2015",http://dx.doi.org/10.1007/s00338-015-1308-9,,
Jess,Sensornet,Oryx Distributed Temperature Sensing,Oryx Distributed Temperature Sensing,"Dongsha Atoll, South China Sea",20.6553,116.9008,China,,,Physical Oceanography,1,,NA,,10,,,,2,50,,NA,2-50 (2m spatial resolution),0.2,,,Yes,,Not mentioned,,No,,"Davis, K. A., Arthur, R. S., Reid, E. C., Rogers, J. S., Fringer, O. B., DeCarlo, T. M., & Cohen, A. L. (2020). Fate of internal waves on a shallow shelf. Journal of Geophysical Research: Oceans, 125, e2019JC015377. https://doi.org/10.1029/2019JC015377",10.1029/2019JC015377,DTS calibrated and validated with Seabird temperature loggers and CTD,
Lena,Teledyne Marine,RDI Workhouse Sentinel ADCP (600kHz),RDI Workhouse Sentinel ADCP (600kHz),"Gulf of Mexico, 30 km off the Florida coast",27.58,-89.71,Florida,,,Ecology,10,,NA,,27 days (19 Dec 2007 to 15 January 2008),,,,Not mentioned,,,NA,11.8 from seafloor,Not mentioned,,,Not mentioned,,Not mentioned,,No,,"Biesinger et al., 2013",http://dx.doi.org/10.1016/j.jembe.2013.02.004,,
Gage,U Beratherm and Grant Squirrel,2 kŒ© thermistors with GS2020 logger,2 kŒ© thermistors with GS2020 logger,"Phuket Island, Thailand () ",7.83333,98.425,Thailand,,,Physical Oceanography,5,30,NA,,Not mentioned,,,,Not mentioned,,,NA,,0.05,0.2 +/- 0.05% readings,,Yes,,Not mentioned,,Yes,,Sweet et al. 2017,http://dx.doi.org/10.1007/s00338-017-1572-y,"First sensor was used to take temp at surface of coral, second was an environmental monitor but needed to be read and recorded by the Grant Squirrel Logger",
Jess,Vemco,Minilog II,Minilog II,"Ras Ghanada, Abu Dhabi, UAE",24.8482,54.6903,United Arab Emirates,,,Ecology,Not mentioned,,NA,,1460,,,,6,,,NA,,Not mentioned,,,Not mentioned,,Not mentioned,,No,,"Riegl B, Cavalcante G, Bauman AG, Feary DA, Steiner S and Purkis S (2017) Demographic Mechanisms of Reef Coral Species Winnowing from Communities under Increased Environmental Stress. Front. Mar. Sci. 4:344. doi: 10.3389/fmars.2017.00344",10.3389/fmars.2017.00344,,
Wally,Vemco,Minilog-II-T,Minilog-II-T,"Opal Reef, Australia ()",-16.2391,145.87016,Australia,,,Ecology,Not mentioned,,NA,,Not mentioned,,,,7,,,NA,,Not mentioned,,,Not mentioned,,Not mentioned,,Yes,,Scott et al. 2019,http://dx.doi.org/10.1111/1365-2435.13271,,
Wally,Vemco,Minilog II,Minilog II,"Lizard Island, Australia (-14¬∫40', 145¬∫27')",-14.66667,145.45,Australia,,,Ecology,Not mentioned,,NA,,Not mentioned,,,,Not mentioned,,,NA,,0.1,,,Not mentioned,,Not mentioned,,No,,Chase et al. 2018,http://dx.doi.org/10.1111/jfb.13644,,
Wally,Vemco,Minilog,Minilog,"Dongsha Atoll, South China Sea",20.6553,116.9008,China,,,Physical Oceanography,0.5,,NA,,1 day,,,,0,,190,NA,,Not mentioned,,,Not mentioned,,Not mentioned,,No,,Wang 2016,http://dx.doi.org/10.1007/s00338-016-1456-6,Loggers were positioned from the surface every 10m down to 190m,
Jess,Yellow Springs Instruments,6600 V2,6600 V2,25¬∞43‚Ä≤32.07‚Ä≥N; 80¬∞09‚Ä≤19.04‚Ä≥W,25.72558,-80.15529,Florida,,,Ecology,15,,NA,,365,,,,3,,,NA,,Not mentioned,,,Not mentioned,,Not mentioned,,No,,"Glynn, P.W., Coffman, B., Fuller, M.P.C., Moorhead, S.G., Williams, M.K., Primov, K.D., Fortson, T.N., Barrales, R.N. and Glynn, P.J. (2017), Benthic ctenophores (Platyctenida: Coeloplanidae) in south Florida: environmental conditions, habitats, abundances, and behaviors. Invertebr Biol, 136: 379-393. https://doi.org/10.1111/ivb.12189",10.1111/ivb.12189,,
Erik,Yellow Springs Instruments,Not mentioned,Not mentioned," 24.926¬∞N, 80.740¬∞W FLorida, US",24.926,-80.74,Florida,,,Ecology,30,,NA,,3y 7months (April 2007 to November 2010),,,,3,,,NA,,Not mentioned,,,Yes,supposedly calibrated but no spec mention for temp,Not mentioned,,No,,,https://doi.org/10.1007/s00338-013-1015-3,,